{"type": "FeatureCollection", "name": "hotosm_ssd_education_facilities_points_geojson", "features": [{"type": "Feature", "properties": {"school_type": "Primary School", "name": "Rubeke p school"}, "geometry": {"type": "Point", "coordinates": [30.5398329, 3.9752101]}}, {"type": "Feature", "properties": {"school_type": "Other or Unknown", "name": "Bura Primary School"}, "geometry": {"type": "Point", "coordinates": [32.4838109, 5.1023165]}}, {"type": "Feature", "properties": {"school_type": "Primary School", "name": "Aguu Primary School"}, "geometry": {"type": "Point", "coordinates": [32.7498252, 3.716471]}}, {"type": "Feature", "properties": {"school_type": "Primary School", "name": "Light house school"}, "geometry": {"type": "Point", "coordinates": [31.5601631, 4.8490143]}}, {"type": "Feature", "properties": {"school_type": "Primary School", "name": "Orphanage Primary"}, "geometry": {"type": "Point", "coordinates": [32.5521753, 4.3635218]}}, {"type": "Feature", "properties": {"school_type": "Secondary School", "name": "St Mary's College"}, "geometry": {"type": "Point", "coordinates": [31.6062426, 4.846156]}}, {"type": "Feature", "properties": {"school_type": "Nursery School", "name": "Lunguma Primary School"}, "geometry": {"type": "Point", "coordinates": [30.9063061, 3.5633831]}}, {"type": "Feature", "properties": {"school_type": "Primary School", "name": "Merwa Progressive College"}, "geometry": {"type": "Point", "coordinates": [31.2854122, 3.6751897]}}, {"type": "Feature", "properties": {"school_type": "Primary School", "name": "Merwa Primary School"}, "geometry": {"type": "Point", "coordinates": [31.2883505, 3.6757411]}}, {"type": "Feature", "properties": {"school_type": "Primary School", "name": "St. John Bugo Nursery And Primary School"}, "geometry": {"type": "Point", "coordinates": [31.2442851, 3.6303144]}}, {"type": "Feature", "properties": {"school_type": "Primary School", "name": "Chokokbid Nursery School"}, "geometry": {"type": "Point", "coordinates": [31.3200933, 3.7165483]}}, {"type": "Feature", "properties": {"school_type": "Primary School", "name": "St Augustine Nursery School Mijale"}, "geometry": {"type": "Point", "coordinates": [31.2899733, 3.6865483]}}, {"type": "Feature", "properties": {"school_type": "Primary School", "name": "Nasir Primary and Secondary School"}, "geometry": {"type": "Point", "coordinates": [33.0756446, 8.6183535]}}, {"type": "Feature", "properties": {"school_type": "Other or Unknown", "name": "Lafon Primary School"}, "geometry": {"type": "Point", "coordinates": [32.4752481, 5.0303943]}}, {"type": "Feature", "properties": {"school_type": "Primary School", "name": "St Kizito Primary School"}, "geometry": {"type": "Point", "coordinates": [31.2738433, 3.6270183]}}, {"type": "Feature", "properties": {"school_type": "Primary School", "name": "Kendra Primary School"}, "geometry": {"type": "Point", "coordinates": [31.357955, 3.6514067]}}, {"type": "Feature", "properties": {"school_type": "Primary School", "name": "Kilaji Primary School"}, "geometry": {"type": "Point", "coordinates": [31.26638, 3.7229967]}}, {"type": "Feature", "properties": {"school_type": "Secondary School", "name": "Rubeke s s"}, "geometry": {"type": "Point", "coordinates": [30.5844392, 4.0266055]}}, {"type": "Feature", "properties": {"school_type": "Primary School", "name": "Riangmal primary school"}, "geometry": {"type": "Point", "coordinates": [27.4288796, 8.9083387]}}, {"type": "Feature", "properties": {"school_type": "Primary School", "name": "Halbul primary school"}, "geometry": {"type": "Point", "coordinates": [27.4673967, 8.8915333]}}, {"type": "Feature", "properties": {"school_type": "Other or Unknown", "name": "Adotic primary school"}, "geometry": {"type": "Point", "coordinates": [27.5067967, 8.8612633]}}, {"type": "Feature", "properties": {"school_type": "Other or Unknown", "name": "Athian p school"}, "geometry": {"type": "Point", "coordinates": [27.5351183, 8.8724667]}}, {"type": "Feature", "properties": {"school_type": "Primary School", "name": "Malualbai p school"}, "geometry": {"type": "Point", "coordinates": [27.7577167, 9.061668]}}, {"type": "Feature", "properties": {"school_type": "Other or Unknown", "name": "Rumaker p school"}, "geometry": {"type": "Point", "coordinates": [27.3884608, 9.5919408]}}, {"type": "Feature", "properties": {"school_type": "Primary School", "name": "Baac p school"}, "geometry": {"type": "Point", "coordinates": [27.5639583, 9.2040333]}}, {"type": "Feature", "properties": {"school_type": "Primary School", "name": "Omdurman p school"}, "geometry": {"type": "Point", "coordinates": [27.510795, 9.2396483]}}, {"type": "Feature", "properties": {"school_type": "Primary School", "name": "Akande Primary School"}, "geometry": {"type": "Point", "coordinates": [32.260916, 3.8492222]}}, {"type": "Feature", "properties": {"school_type": "Primary School", "name": "Majak p. School"}, "geometry": {"type": "Point", "coordinates": [27.8701194, 9.0839103]}}, {"type": "Feature", "properties": {"school_type": "Primary School", "name": "Majak primary school"}, "geometry": {"type": "Point", "coordinates": [27.8704559, 9.0838638]}}, {"type": "Feature", "properties": {"school_type": "Primary School", "name": "Makuen Agap p. school"}, "geometry": {"type": "Point", "coordinates": [27.5594831, 8.9494754]}}, {"type": "Feature", "properties": {"school_type": "Primary School", "name": "Magwi Central Primary School"}, "geometry": {"type": "Point", "coordinates": [32.3028106, 4.1236627]}}, {"type": "Feature", "properties": {"school_type": "Other or Unknown", "name": null}, "geometry": {"type": "Point", "coordinates": [27.4643019, 5.5995726]}}, {"type": "Feature", "properties": {"school_type": "Primary School", "name": "Home Dave Primary School"}, "geometry": {"type": "Point", "coordinates": [31.7212, 3.6570922]}}, {"type": "Feature", "properties": {"school_type": "Secondary School", "name": "Noor Primary School"}, "geometry": {"type": "Point", "coordinates": [31.728175, 3.6494166]}}, {"type": "Feature", "properties": {"school_type": "Primary School", "name": "Moyo Technical Institute"}, "geometry": {"type": "Point", "coordinates": [31.7227834, 3.6451011]}}, {"type": "Feature", "properties": {"school_type": "Primary School", "name": "Tendele Community School"}, "geometry": {"type": "Point", "coordinates": [30.9934605, 3.642304]}}, {"type": "Feature", "properties": {"school_type": "Primary School", "name": "Crop Training Centre (CTC)"}, "geometry": {"type": "Point", "coordinates": [30.666055, 4.08651]}}, {"type": "Feature", "properties": {"school_type": "Secondary School", "name": "Lerwa primary school"}, "geometry": {"type": "Point", "coordinates": [32.5427617, 3.9503331]}}, {"type": "Feature", "properties": {"school_type": "Other or Unknown", "name": "Palmar primary school"}, "geometry": {"type": "Point", "coordinates": [32.5978381, 3.9182878]}}, {"type": "Feature", "properties": {"school_type": "Primary School", "name": "Jebel church"}, "geometry": {"type": "Point", "coordinates": [31.5005387, 4.8666747]}}, {"type": "Feature", "properties": {"school_type": "Secondary School", "name": "Palacam Primary School"}, "geometry": {"type": "Point", "coordinates": [32.9062383, 3.7175856]}}, {"type": "Feature", "properties": {"school_type": "Nursery School, Primary School", "name": null}, "geometry": {"type": "Point", "coordinates": [31.7067939, 9.6208612]}}, {"type": "Feature", "properties": {"school_type": "Primary School", "name": "Ubbi Primary School"}, "geometry": {"type": "Point", "coordinates": [31.8273027, 3.5880118]}}, {"type": "Feature", "properties": {"school_type": "Nursery School", "name": "Ogolo Primary School"}, "geometry": {"type": "Point", "coordinates": [31.9868019, 3.5484158]}}, {"type": "Feature", "properties": {"school_type": "Secondary School", "name": "Obero Primary School"}, "geometry": {"type": "Point", "coordinates": [32.1110888, 3.5862842]}}, {"type": "Feature", "properties": {"school_type": "Other or Unknown", "name": "Kai Gai Primary"}, "geometry": {"type": "Point", "coordinates": [30.1781666, 8.2838383]}}, {"type": "Feature", "properties": {"school_type": "Other or Unknown", "name": "Kolokolo Primary School"}, "geometry": {"type": "Point", "coordinates": [31.6429173, 3.5862318]}}, {"type": "Feature", "properties": {"school_type": "Primary School", "name": "Dong Abel Primary School"}, "geometry": {"type": "Point", "coordinates": [27.1842515, 8.6641406]}}, {"type": "Feature", "properties": {"school_type": "Nursery School", "name": "Lurunya Primary School"}, "geometry": {"type": "Point", "coordinates": [33.0028479, 3.811375]}}, {"type": "Feature", "properties": {"school_type": "Primary School", "name": "Agoro Nursery School"}, "geometry": {"type": "Point", "coordinates": [33.0183326, 3.7961068]}}, {"type": "Feature", "properties": {"school_type": "Other or Unknown", "name": "Lekuangole Primary School"}, "geometry": {"type": "Point", "coordinates": [33.0071394, 7.0492021]}}, {"type": "Feature", "properties": {"school_type": "Primary School", "name": "Bishop Gwynne School of Theology"}, "geometry": {"type": "Point", "coordinates": [31.6135973, 4.8413329]}}, {"type": "Feature", "properties": {"school_type": "Nursery School", "name": "Afonji Primary School"}, "geometry": {"type": "Point", "coordinates": [31.6819358, 3.6987227]}}, {"type": "Feature", "properties": {"school_type": "Primary School", "name": "Eria Primary School"}, "geometry": {"type": "Point", "coordinates": [31.6555929, 3.6286904]}}, {"type": "Feature", "properties": {"school_type": "Other or Unknown", "name": "Lama Primary School"}, "geometry": {"type": "Point", "coordinates": [31.7565617, 3.5980584]}}, {"type": "Feature", "properties": {"school_type": "Secondary School", "name": "Goboro Primary School"}, "geometry": {"type": "Point", "coordinates": [31.4538596, 3.6377148]}}, {"type": "Feature", "properties": {"school_type": "Nursery School, Primary School", "name": "Romogi Seed Secondary School"}, "geometry": {"type": "Point", "coordinates": [31.5405836, 3.7751383]}}, {"type": "Feature", "properties": {"school_type": "Nursery School", "name": "Mugumbe Primary School"}, "geometry": {"type": "Point", "coordinates": [30.8498144, 3.8121788]}}, {"type": "Feature", "properties": {"school_type": "Primary School", "name": "Limidia High Secondary School"}, "geometry": {"type": "Point", "coordinates": [31.0464454, 3.8020861]}}, {"type": "Feature", "properties": {"school_type": "Primary School", "name": "Limidia Primary School"}, "geometry": {"type": "Point", "coordinates": [31.0409443, 3.8145052]}}, {"type": "Feature", "properties": {"school_type": "Primary School", "name": "Banika Islamic Primary School"}, "geometry": {"type": "Point", "coordinates": [31.0855517, 3.6463458]}}, {"type": "Feature", "properties": {"school_type": "Primary School", "name": "Mena Primary School"}, "geometry": {"type": "Point", "coordinates": [30.8686038, 3.4787357]}}, {"type": "Feature", "properties": {"school_type": "Primary School, College", "name": "Rubeke P school"}, "geometry": {"type": "Point", "coordinates": [30.5831032, 4.0249202]}}, {"type": "Feature", "properties": {"school_type": "Primary School", "name": "Rubeke primary school otogo pam"}, "geometry": {"type": "Point", "coordinates": [30.5838833, 4.0243979]}}, {"type": "Feature", "properties": {"school_type": "Primary School", "name": "Alero School"}, "geometry": {"type": "Point", "coordinates": [30.7378041, 4.0086199]}}, {"type": "Feature", "properties": {"school_type": "Secondary School", "name": "DAR EL SALAAM PRIMARY SCHOOL"}, "geometry": {"type": "Point", "coordinates": [30.6746688, 4.1119317]}}, {"type": "Feature", "properties": {"school_type": "Primary School", "name": "emmanuel kintergarden nursery school"}, "geometry": {"type": "Point", "coordinates": [30.6659637, 4.0954398]}}, {"type": "Feature", "properties": {"school_type": "Primary School", "name": "st joseph lutaya secondary school"}, "geometry": {"type": "Point", "coordinates": [30.6485288, 4.0770002]}}, {"type": "Feature", "properties": {"school_type": "Primary School", "name": "Peremasu School"}, "geometry": {"type": "Point", "coordinates": [30.7220321, 4.0395759]}}, {"type": "Feature", "properties": {"school_type": "Primary School", "name": "Mentor primary school"}, "geometry": {"type": "Point", "coordinates": [31.5632263, 4.8552305]}}, {"type": "Feature", "properties": {"school_type": "Secondary School", "name": "Nuru Nursery School"}, "geometry": {"type": "Point", "coordinates": [31.0531541, 3.8099184]}}, {"type": "Feature", "properties": {"school_type": "Nursery School, Primary School", "name": "Yei Teacher Training Collage"}, "geometry": {"type": "Point", "coordinates": [30.6633213, 4.0914981]}}, {"type": "Feature", "properties": {"school_type": "Primary School", "name": "Amara(HS-halls)"}, "geometry": {"type": "Point", "coordinates": [31.5907518, 4.8414249]}}, {"type": "Feature", "properties": {"school_type": "Other or Unknown", "name": "House of Hope"}, "geometry": {"type": "Point", "coordinates": [31.5674235, 4.8385843]}}, {"type": "Feature", "properties": {"school_type": "Primary School", "name": "City Academy Secondary school"}, "geometry": {"type": "Point", "coordinates": [31.585328, 4.8458726]}}, {"type": "Feature", "properties": {"school_type": "Primary School", "name": "Partial p school"}, "geometry": {"type": "Point", "coordinates": [27.6179017, 8.9617867]}}, {"type": "Feature", "properties": {"school_type": "Primary School", "name": "Riangmal primary school"}, "geometry": {"type": "Point", "coordinates": [27.4286367, 8.9074683]}}, {"type": "Feature", "properties": {"school_type": "Other or Unknown", "name": "Uyon primary sch"}, "geometry": {"type": "Point", "coordinates": [27.5939, 8.9403533]}}, {"type": "Feature", "properties": {"school_type": "Primary School", "name": "Bishop Asili Senior Secondary School"}, "geometry": {"type": "Point", "coordinates": [31.7300351, 3.6433771]}}, {"type": "Feature", "properties": {"school_type": "Primary School", "name": "Tororo Primary School"}, "geometry": {"type": "Point", "coordinates": [31.7024245, 3.64788]}}, {"type": "Feature", "properties": {"school_type": "Nursery School, Primary School", "name": "Arra Primary School"}, "geometry": {"type": "Point", "coordinates": [31.9092377, 3.6151891]}}, {"type": "Feature", "properties": {"school_type": "Primary School", "name": "Swinga Primary School"}, "geometry": {"type": "Point", "coordinates": [31.7871264, 3.6223636]}}, {"type": "Feature", "properties": {"school_type": "Other or Unknown", "name": "Aciek Agriculture Training centre"}, "geometry": {"type": "Point", "coordinates": [27.5163683, 8.9544783]}}, {"type": "Feature", "properties": {"school_type": "Other or Unknown", "name": "Agonk bek Secondary School"}, "geometry": {"type": "Point", "coordinates": [28.8234049, 9.3879903]}}, {"type": "Feature", "properties": {"school_type": "Primary School", "name": "Potika Nursery School"}, "geometry": {"type": "Point", "coordinates": [32.8808099, 3.7187829]}}, {"type": "Feature", "properties": {"school_type": "Other or Unknown", "name": "Paanjala Nursery School"}, "geometry": {"type": "Point", "coordinates": [31.964447, 3.5742255]}}, {"type": "Feature", "properties": {"school_type": "Primary School", "name": "Lamwoka Primary School"}, "geometry": {"type": "Point", "coordinates": [32.9114119, 3.7781922]}}, {"type": "Feature", "properties": {"school_type": "Primary School", "name": "Apwoyo Primary School"}, "geometry": {"type": "Point", "coordinates": [32.9992768, 3.7549375]}}, {"type": "Feature", "properties": {"school_type": "Nursery School, Primary School", "name": "Abeso Primary School"}, "geometry": {"type": "Point", "coordinates": [31.8652327, 3.6632404]}}, {"type": "Feature", "properties": {"school_type": "Primary School", "name": "Ayaa Primary School"}, "geometry": {"type": "Point", "coordinates": [31.8314812, 3.6745119]}}, {"type": "Feature", "properties": {"school_type": "Primary School", "name": "Lechu Primary School"}, "geometry": {"type": "Point", "coordinates": [31.8329546, 3.6458554]}}, {"type": "Feature", "properties": {"school_type": "Primary School", "name": "Panjara Primary School"}, "geometry": {"type": "Point", "coordinates": [31.9473775, 3.5730412]}}, {"type": "Feature", "properties": {"school_type": "Primary School", "name": "Amua Primary School"}, "geometry": {"type": "Point", "coordinates": [31.8013076, 3.6331083]}}, {"type": "Feature", "properties": {"school_type": "Secondary School", "name": "Alimo Primary School"}, "geometry": {"type": "Point", "coordinates": [31.7920685, 3.6489941]}}, {"type": "Feature", "properties": {"school_type": "Primary School", "name": "Besia Primary School"}, "geometry": {"type": "Point", "coordinates": [31.7184279, 3.6481137]}}, {"type": "Feature", "properties": {"school_type": "Primary School", "name": "Eremi Primary School"}, "geometry": {"type": "Point", "coordinates": [31.8124055, 3.6497818]}}, {"type": "Feature", "properties": {"school_type": "Primary School", "name": "Erepi Primary School"}, "geometry": {"type": "Point", "coordinates": [31.7653035, 3.6496465]}}, {"type": "Feature", "properties": {"school_type": "Primary School", "name": "Era Primary School"}, "geometry": {"type": "Point", "coordinates": [31.6810057, 3.6326138]}}, {"type": "Feature", "properties": {"school_type": "Primary School", "name": "Erepi Primary Teachers College"}, "geometry": {"type": "Point", "coordinates": [31.7653862, 3.6480777]}}, {"type": "Feature", "properties": {"school_type": "Primary School", "name": "Etele Primary School"}, "geometry": {"type": "Point", "coordinates": [31.7366691, 3.6279725]}}, {"type": "Feature", "properties": {"school_type": "Secondary School", "name": "Father Biribawo Primary School"}, "geometry": {"type": "Point", "coordinates": [31.7132987, 3.6564618]}}, {"type": "Feature", "properties": {"school_type": "Other or Unknown", "name": "Kongolo Primary School"}, "geometry": {"type": "Point", "coordinates": [31.7230345, 3.6357954]}}, {"type": "Feature", "properties": {"school_type": "Primary School", "name": "Lokwa Secondary School"}, "geometry": {"type": "Point", "coordinates": [31.7885631, 3.6784376]}}, {"type": "Feature", "properties": {"school_type": "Primary School", "name": "Metu Secondary School"}, "geometry": {"type": "Point", "coordinates": [31.7926227, 3.6713098]}}, {"type": "Feature", "properties": {"school_type": "Primary School", "name": "Moyo Army Primary School"}, "geometry": {"type": "Point", "coordinates": [31.7107263, 3.6659043]}}, {"type": "Feature", "properties": {"school_type": "Primary School", "name": "Logoba Primary School"}, "geometry": {"type": "Point", "coordinates": [31.7032018, 3.6834434]}}, {"type": "Feature", "properties": {"school_type": "Primary School", "name": "Mada Primary School"}, "geometry": {"type": "Point", "coordinates": [31.7457991, 3.6599912]}}, {"type": "Feature", "properties": {"school_type": "Other or Unknown", "name": "Moyo Boys' Primary School"}, "geometry": {"type": "Point", "coordinates": [31.7164227, 3.656464]}}, {"type": "Feature", "properties": {"school_type": "Primary School", "name": "Moyo Girls' Primary School"}, "geometry": {"type": "Point", "coordinates": [31.7160959, 3.657309]}}, {"type": "Feature", "properties": {"school_type": "Primary School", "name": "Moyo Town Council Primary School"}, "geometry": {"type": "Point", "coordinates": [31.724808, 3.6588595]}}, {"type": "Feature", "properties": {"school_type": "Primary School", "name": "Nyojo Primary School"}, "geometry": {"type": "Point", "coordinates": [31.7899042, 3.6723835]}}, {"type": "Feature", "properties": {"school_type": "Primary School", "name": "Odokomba Primary School"}, "geometry": {"type": "Point", "coordinates": [31.7558305, 3.6494509]}}, {"type": "Feature", "properties": {"school_type": "Primary School", "name": "Saint Andrew College"}, "geometry": {"type": "Point", "coordinates": [31.7201137, 3.6392951]}}, {"type": "Feature", "properties": {"school_type": "Primary School", "name": "Saint Kizito Primary School"}, "geometry": {"type": "Point", "coordinates": [31.7872186, 3.6714134]}}, {"type": "Feature", "properties": {"school_type": "Other or Unknown", "name": "Pentagon College"}, "geometry": {"type": "Point", "coordinates": [31.7112488, 3.6565721]}}, {"type": "Feature", "properties": {"school_type": "Secondary School", "name": null}, "geometry": {"type": "Point", "coordinates": [31.5274036, 4.8094224]}}, {"type": "Feature", "properties": {"school_type": "Primary School", "name": "Elegu Primary School"}, "geometry": {"type": "Point", "coordinates": [31.7986925, 3.7435354]}}, {"type": "Feature", "properties": {"school_type": "Primary School", "name": "Kyeyo Primary School"}, "geometry": {"type": "Point", "coordinates": [31.783359, 3.7126414]}}, {"type": "Feature", "properties": {"school_type": "Primary School", "name": "Logoba Secondary School"}, "geometry": {"type": "Point", "coordinates": [31.7038444, 3.6897195]}}, {"type": "Feature", "properties": {"school_type": "Primary School", "name": "Gbari Primary School"}, "geometry": {"type": "Point", "coordinates": [31.8100618, 3.7851736]}}, {"type": "Feature", "properties": {"school_type": "Primary School", "name": "Goopi Primary School"}, "geometry": {"type": "Point", "coordinates": [31.7749364, 3.6947734]}}, {"type": "Feature", "properties": {"school_type": "Secondary School", "name": "Masaloa Primary School"}, "geometry": {"type": "Point", "coordinates": [31.6105362, 3.6021209]}}, {"type": "Feature", "properties": {"school_type": "Primary School", "name": "Nyambiri Primary School"}, "geometry": {"type": "Point", "coordinates": [30.9591617, 3.6516837]}}, {"type": "Feature", "properties": {"school_type": "Secondary School", "name": "Alipi Primary School"}, "geometry": {"type": "Point", "coordinates": [30.8903526, 3.4978966]}}, {"type": "Feature", "properties": {"school_type": "Primary School", "name": "Pibor primary school"}, "geometry": {"type": "Point", "coordinates": [33.1287333, 6.8006746]}}, {"type": "Feature", "properties": {"school_type": "Primary School", "name": "Logoa Primary School"}, "geometry": {"type": "Point", "coordinates": [30.8400597, 3.479288]}}, {"type": "Feature", "properties": {"school_type": "Primary School", "name": "Akuem primary school"}, "geometry": {"type": "Point", "coordinates": [27.5100163, 8.955537]}}, {"type": "Feature", "properties": {"school_type": "Primary School", "name": "Akuem primary School"}, "geometry": {"type": "Point", "coordinates": [27.509962, 8.9556422]}}, {"type": "Feature", "properties": {"school_type": "Primary School", "name": "Lamuribenge Vocational School"}, "geometry": {"type": "Point", "coordinates": [33.0348262, 3.7642345]}}, {"type": "Feature", "properties": {"school_type": "Primary School", "name": "Agoro Primary School"}, "geometry": {"type": "Point", "coordinates": [33.0181339, 3.8037333]}}, {"type": "Feature", "properties": {"school_type": "Other or Unknown", "name": "Akka Community Primary School"}, "geometry": {"type": "Point", "coordinates": [31.9133594, 3.6401976]}}, {"type": "Feature", "properties": {"school_type": "Other or Unknown", "name": "Dufile Primary School"}, "geometry": {"type": "Point", "coordinates": [31.9253736, 3.5708094]}}, {"type": "Feature", "properties": {"school_type": "Primary School", "name": "Ayipe Cope Primary School"}, "geometry": {"type": "Point", "coordinates": [30.9517609, 3.5777727]}}, {"type": "Feature", "properties": {"school_type": "Other or Unknown", "name": "Lokwa Primary School"}, "geometry": {"type": "Point", "coordinates": [31.7885311, 3.6771374]}}, {"type": "Feature", "properties": {"school_type": "Primary School", "name": "Father Biribawo Secondary School"}, "geometry": {"type": "Point", "coordinates": [31.715133, 3.6583772]}}, {"type": "Feature", "properties": {"school_type": "Nursery School", "name": "Liri Primary School"}, "geometry": {"type": "Point", "coordinates": [31.7660657, 3.6236449]}}, {"type": "Feature", "properties": {"school_type": "Primary School", "name": "Kololo Community Primary School"}, "geometry": {"type": "Point", "coordinates": [30.9798157, 3.6250769]}}, {"type": "Feature", "properties": {"school_type": "Primary School", "name": "Fataha Primary School"}, "geometry": {"type": "Point", "coordinates": [30.9004883, 3.6010663]}}, {"type": "Feature", "properties": {"school_type": "Primary School", "name": "Stordy Nursery & primary School"}, "geometry": {"type": "Point", "coordinates": [31.7288569, 3.6566247]}}, {"type": "Feature", "properties": {"school_type": "Primary School", "name": "Yei Day Secondary School"}, "geometry": {"type": "Point", "coordinates": [30.6690149, 4.0983191]}}, {"type": "Feature", "properties": {"school_type": "Primary School", "name": "mahat primary school"}, "geometry": {"type": "Point", "coordinates": [30.6982053, 4.0964985]}}, {"type": "Feature", "properties": {"school_type": "Primary School", "name": "EPC Nehemiah Primary School"}, "geometry": {"type": "Point", "coordinates": [30.6869656, 4.0940847]}}, {"type": "Feature", "properties": {"school_type": "Primary School", "name": "Benagoro Primary School"}, "geometry": {"type": "Point", "coordinates": [31.1296488, 3.9014432]}}, {"type": "Feature", "properties": {"school_type": "Primary School", "name": null}, "geometry": {"type": "Point", "coordinates": [33.7417418, 9.9901912]}}, {"type": "Feature", "properties": {"school_type": "Primary School", "name": "Majak p. Sch"}, "geometry": {"type": "Point", "coordinates": [27.869875, 9.08371]}}, {"type": "Feature", "properties": {"school_type": "College", "name": "CWEP ITC"}, "geometry": {"type": "Point", "coordinates": [30.688314, 4.0947862]}}, {"type": "Feature", "properties": {"school_type": "Secondary School", "name": "Take Care Nursery School"}, "geometry": {"type": "Point", "coordinates": [31.451535, 3.6380667]}}, {"type": "Feature", "properties": {"school_type": "Nursery School", "name": "Wardoper Family Care Nursery School"}, "geometry": {"type": "Point", "coordinates": [31.4535667, 3.6424883]}}, {"type": "Feature", "properties": {"school_type": "Nursery School, Primary School", "name": "Mianga Nursery School"}, "geometry": {"type": "Point", "coordinates": [31.2934167, 3.659955]}}, {"type": "Feature", "properties": {"school_type": "Primary School", "name": "Eden Nursery School"}, "geometry": {"type": "Point", "coordinates": [31.2852017, 3.64799]}}, {"type": "Feature", "properties": {"school_type": "Primary School", "name": "St.Mark Nursery School Kololo"}, "geometry": {"type": "Point", "coordinates": [31.27517, 3.657095]}}, {"type": "Feature", "properties": {"school_type": "Primary School", "name": "Sasanya Nursery School"}, "geometry": {"type": "Point", "coordinates": [31.2736117, 3.6934933]}}, {"type": "Feature", "properties": {"school_type": "Primary School", "name": "Dongoda"}, "geometry": {"type": "Point", "coordinates": [31.268045, 3.722]}}, {"type": "Feature", "properties": {"school_type": "Primary School", "name": "Goboro Primary School"}, "geometry": {"type": "Point", "coordinates": [31.4538733, 3.6375417]}}, {"type": "Feature", "properties": {"school_type": "Primary School", "name": "Bright Junior Nursery And Primary School"}, "geometry": {"type": "Point", "coordinates": [31.5277489, 3.5937451]}}, {"type": "Feature", "properties": {"school_type": "Primary School", "name": "Kerwa Primary School"}, "geometry": {"type": "Point", "coordinates": [31.310181, 3.7145902]}}, {"type": "Feature", "properties": {"school_type": "Other or Unknown", "name": "Mijikita Primary School"}, "geometry": {"type": "Point", "coordinates": [31.3025184, 3.7433572]}}, {"type": "Feature", "properties": {"school_type": "Primary School", "name": "Matu Primary School"}, "geometry": {"type": "Point", "coordinates": [31.3242058, 3.6880372]}}, {"type": "Feature", "properties": {"school_type": "Primary School", "name": "Aligo Primary School"}, "geometry": {"type": "Point", "coordinates": [31.2392593, 3.6473321]}}, {"type": "Feature", "properties": {"school_type": "Primary School", "name": "Osubira Primary School"}, "geometry": {"type": "Point", "coordinates": [31.2646438, 3.6560794]}}, {"type": "Feature", "properties": {"school_type": "Primary School", "name": "Mijale Primary School"}, "geometry": {"type": "Point", "coordinates": [31.2909833, 3.6854868]}}, {"type": "Feature", "properties": {"school_type": "Secondary School", "name": "Adibu Primary"}, "geometry": {"type": "Point", "coordinates": [31.3022417, 3.6494983]}}, {"type": "Feature", "properties": {"school_type": "Primary School", "name": "Koloa Primary School"}, "geometry": {"type": "Point", "coordinates": [31.145411, 3.6394495]}}, {"type": "Feature", "properties": {"school_type": "Other or Unknown", "name": "Kerwa Secondary School"}, "geometry": {"type": "Point", "coordinates": [31.2913091, 3.685633]}}, {"type": "Feature", "properties": {"school_type": "Secondary School", "name": "Mijale Amazing Grace Baptist Nursery And Primary School"}, "geometry": {"type": "Point", "coordinates": [31.2924267, 3.6933317]}}, {"type": "Feature", "properties": {"school_type": "Secondary School", "name": "Mundri one primary school"}, "geometry": {"type": "Point", "coordinates": [30.285953, 5.3432784]}}, {"type": "Feature", "properties": {"school_type": "Other or Unknown", "name": "Faka primary school"}, "geometry": {"type": "Point", "coordinates": [30.3076474, 5.3493353]}}, {"type": "Feature", "properties": {"school_type": "Nursery School", "name": "Liwa primary school"}, "geometry": {"type": "Point", "coordinates": [30.379117, 5.4050778]}}, {"type": "Feature", "properties": {"school_type": "Primary School, Secondary School", "name": "Bitti primary school"}, "geometry": {"type": "Point", "coordinates": [30.4364781, 5.5699939]}}, {"type": "Feature", "properties": {"school_type": "Other or Unknown", "name": "Miri mojo primary school"}, "geometry": {"type": "Point", "coordinates": [30.3117296, 5.3335204]}}, {"type": "Feature", "properties": {"school_type": "Primary School", "name": "Baya Primary"}, "geometry": {"type": "Point", "coordinates": [30.327356, 5.3466793]}}, {"type": "Feature", "properties": {"school_type": "Nursery School", "name": "Mundri youth center"}, "geometry": {"type": "Point", "coordinates": [30.3247392, 5.3445409]}}, {"type": "Feature", "properties": {"school_type": "Primary School", "name": "Koromula primary school"}, "geometry": {"type": "Point", "coordinates": [30.4183168, 5.5995064]}}, {"type": "Feature", "properties": {"school_type": "Primary School", "name": "Gulu one primary school"}, "geometry": {"type": "Point", "coordinates": [30.1600992, 5.3700777]}}, {"type": "Feature", "properties": {"school_type": "Primary School", "name": "Medewu primary school"}, "geometry": {"type": "Point", "coordinates": [30.3270902, 5.0327437]}}, {"type": "Feature", "properties": {"school_type": "Primary School", "name": "Mundri advertise secondary school"}, "geometry": {"type": "Point", "coordinates": [30.3197747, 5.3524505]}}, {"type": "Feature", "properties": {"school_type": "Primary School", "name": "True Light nursery and primary school"}, "geometry": {"type": "Point", "coordinates": [30.2962452, 5.341644]}}, {"type": "Feature", "properties": {"school_type": "Primary School", "name": "Kotobi vocational center"}, "geometry": {"type": "Point", "coordinates": [30.210673, 5.25738]}}, {"type": "Feature", "properties": {"school_type": "Primary School", "name": "Mandi primary school"}, "geometry": {"type": "Point", "coordinates": [30.1088705, 5.1615679]}}, {"type": "Feature", "properties": {"school_type": "Nursery School, Primary School", "name": "Mundri 2 primary and Hai Malakal primary school"}, "geometry": {"type": "Point", "coordinates": [30.3244384, 5.3522595]}}, {"type": "Feature", "properties": {"school_type": "Primary School", "name": "Emmanuel and Moni Nursery and primary school"}, "geometry": {"type": "Point", "coordinates": [30.3198749, 5.3381108]}}, {"type": "Feature", "properties": {"school_type": "Primary School", "name": "Parish primary school"}, "geometry": {"type": "Point", "coordinates": [30.2996667, 4.829435]}}, {"type": "Feature", "properties": {"school_type": "Nursery School", "name": "Alliance secondary school"}, "geometry": {"type": "Point", "coordinates": [30.3311287, 5.344783]}}, {"type": "Feature", "properties": {"school_type": "Primary School", "name": "Bari primary school"}, "geometry": {"type": "Point", "coordinates": [30.3934836, 5.2290373]}}, {"type": "Feature", "properties": {"school_type": "Primary School", "name": "Mama Kezia primary school"}, "geometry": {"type": "Point", "coordinates": [30.3073052, 5.3292863]}}, {"type": "Feature", "properties": {"school_type": "Primary School", "name": "Okari primary school"}, "geometry": {"type": "Point", "coordinates": [30.2685737, 5.3323553]}}, {"type": "Feature", "properties": {"school_type": "Primary School", "name": "Ladder kindergarten and primary school"}, "geometry": {"type": "Point", "coordinates": [30.3051527, 5.3508436]}}, {"type": "Feature", "properties": {"school_type": "Primary School", "name": "Bari Displace"}, "geometry": {"type": "Point", "coordinates": [30.4174594, 5.2391294]}}, {"type": "Feature", "properties": {"school_type": "College", "name": "Mama Alice Nursery school"}, "geometry": {"type": "Point", "coordinates": [30.2908612, 5.345824]}}, {"type": "Feature", "properties": {"school_type": "Other or Unknown", "name": "Disu nursery school"}, "geometry": {"type": "Point", "coordinates": [30.2990728, 5.3299753]}}, {"type": "Feature", "properties": {"school_type": "Primary School", "name": "Upper primary school"}, "geometry": {"type": "Point", "coordinates": [30.1999944, 5.251839]}}, {"type": "Feature", "properties": {"school_type": "Nursery School", "name": "Mitikologa primary school"}, "geometry": {"type": "Point", "coordinates": [30.3391975, 5.3528109]}}, {"type": "Feature", "properties": {"school_type": "Primary School", "name": "Mundri Adventist primary school"}, "geometry": {"type": "Point", "coordinates": [30.3192492, 5.3529326]}}, {"type": "Feature", "properties": {"school_type": "Primary School", "name": "Janga primary school"}, "geometry": {"type": "Point", "coordinates": [30.3169658, 5.3150083]}}, {"type": "Feature", "properties": {"school_type": "Primary School", "name": "Mbara Primary school"}, "geometry": {"type": "Point", "coordinates": [30.1656684, 5.5765989]}}, {"type": "Feature", "properties": {"school_type": "Primary School", "name": "Lendrewa primary school"}, "geometry": {"type": "Point", "coordinates": [30.3117666, 5.3728442]}}, {"type": "Feature", "properties": {"school_type": "Secondary School", "name": "Seventh advertise nursery school"}, "geometry": {"type": "Point", "coordinates": [30.3201249, 5.3546964]}}, {"type": "Feature", "properties": {"school_type": "Primary School", "name": "Ledingwa primary school"}, "geometry": {"type": "Point", "coordinates": [30.3347734, 4.9483583]}}, {"type": "Feature", "properties": {"school_type": "Primary School", "name": "Geria Bush school"}, "geometry": {"type": "Point", "coordinates": [30.3417105, 5.0605989]}}, {"type": "Feature", "properties": {"school_type": "Primary School", "name": "Baya memorial secondary school"}, "geometry": {"type": "Point", "coordinates": [30.3185655, 5.3489285]}}, {"type": "Feature", "properties": {"school_type": "Other or Unknown", "name": "Seventh days advertise primary school"}, "geometry": {"type": "Point", "coordinates": [30.3443289, 5.3580933]}}, {"type": "Feature", "properties": {"school_type": "Primary School", "name": "Ezibon Mandiri secondary school"}, "geometry": {"type": "Point", "coordinates": [30.3291096, 5.3488502]}}, {"type": "Feature", "properties": {"school_type": "College", "name": "Karika One Nursery and Primary School"}, "geometry": {"type": "Point", "coordinates": [30.0359677, 5.1298917]}}, {"type": "Feature", "properties": {"school_type": "Primary School", "name": "Kotobi secondary school"}, "geometry": {"type": "Point", "coordinates": [30.2017337, 5.2509091]}}, {"type": "Feature", "properties": {"school_type": "Nursery School", "name": "Mundri Teachers Union secondary school"}, "geometry": {"type": "Point", "coordinates": [30.3275581, 5.3512263]}}, {"type": "Feature", "properties": {"school_type": "Nursery School", "name": "Amalo"}, "geometry": {"type": "Point", "coordinates": [30.3168607, 5.3237212]}}, {"type": "Feature", "properties": {"school_type": "Primary School", "name": "Amadi 2 primary school"}, "geometry": {"type": "Point", "coordinates": [30.3324846, 5.5332453]}}, {"type": "Feature", "properties": {"school_type": "Nursery School", "name": "Emma memorial secondary school"}, "geometry": {"type": "Point", "coordinates": [30.3038651, 5.3538924]}}, {"type": "Feature", "properties": {"school_type": "Secondary School", "name": "EMMA memorial academy"}, "geometry": {"type": "Point", "coordinates": [30.3165965, 5.3581306]}}, {"type": "Feature", "properties": {"school_type": "Primary School", "name": "Mundri one teachers training center"}, "geometry": {"type": "Point", "coordinates": [30.2883477, 5.3426111]}}, {"type": "Feature", "properties": {"school_type": "College", "name": "Fundraising nursery and primary school"}, "geometry": {"type": "Point", "coordinates": [30.3275668, 5.3436471]}}, {"type": "Feature", "properties": {"school_type": "Secondary School", "name": "Andiriya Apaya"}, "geometry": {"type": "Point", "coordinates": [30.3261166, 5.350353]}}, {"type": "Feature", "properties": {"school_type": "Nursery School, Primary School", "name": "New Generation Academy"}, "geometry": {"type": "Point", "coordinates": [30.3173988, 5.3596266]}}, {"type": "Feature", "properties": {"school_type": "Other or Unknown", "name": "Hia Baraka nursery and primary school"}, "geometry": {"type": "Point", "coordinates": [30.3460416, 5.3510081]}}, {"type": "Feature", "properties": {"school_type": "Nursery School", "name": "One Way Nursery and primary school"}, "geometry": {"type": "Point", "coordinates": [30.3221393, 5.3057542]}}, {"type": "Feature", "properties": {"school_type": "Nursery School, Primary School", "name": "Karkia ll Primary and Pre school"}, "geometry": {"type": "Point", "coordinates": [30.0537638, 5.1378576]}}, {"type": "Feature", "properties": {"school_type": "Primary School", "name": "Nanga nursery school"}, "geometry": {"type": "Point", "coordinates": [30.087535, 5.1516957]}}, {"type": "Feature", "properties": {"school_type": "Nursery School", "name": "Mundri secondary school, Motherland secondary and Kotobi secondary school"}, "geometry": {"type": "Point", "coordinates": [30.3271781, 5.3534321]}}, {"type": "Feature", "properties": {"school_type": "Other or Unknown", "name": "Bright hope secondary school"}, "geometry": {"type": "Point", "coordinates": [30.3206971, 5.3377511]}}, {"type": "Feature", "properties": {"school_type": "Primary School", "name": "Amadi primary school"}, "geometry": {"type": "Point", "coordinates": [30.3404726, 5.5072983]}}, {"type": "Feature", "properties": {"school_type": "Nursery School, Primary School", "name": "Kulundu primary School"}, "geometry": {"type": "Point", "coordinates": [30.3446691, 5.6615282]}}, {"type": "Feature", "properties": {"school_type": "Primary School", "name": "Ezra baya memorials primary school"}, "geometry": {"type": "Point", "coordinates": [30.3184878, 5.3488119]}}, {"type": "Feature", "properties": {"school_type": "College", "name": "lutaya primary school"}, "geometry": {"type": "Point", "coordinates": [30.6478398, 4.0782873]}}, {"type": "Feature", "properties": {"school_type": "Primary School", "name": "st paul secondary school"}, "geometry": {"type": "Point", "coordinates": [30.686751, 4.0983819]}}, {"type": "Feature", "properties": {"school_type": "Primary School", "name": null}, "geometry": {"type": "Point", "coordinates": [30.1500785, 8.3009068]}}, {"type": "Feature", "properties": {"school_type": "Nursery School", "name": "Primary school Leer"}, "geometry": {"type": "Point", "coordinates": [30.1329794, 8.3092751]}}, {"type": "Feature", "properties": {"school_type": "Secondary School", "name": "Imotong Life Skills Centre"}, "geometry": {"type": "Point", "coordinates": [32.84513, 4.1705913]}}, {"type": "Feature", "properties": {"school_type": "Other or Unknown", "name": "Kaya Primary School"}, "geometry": {"type": "Point", "coordinates": [30.9034225, 3.5223212]}}, {"type": "Feature", "properties": {"school_type": "Other or Unknown", "name": "Kagoropa Primary School"}, "geometry": {"type": "Point", "coordinates": [30.9296297, 3.5861702]}}, {"type": "Feature", "properties": {"school_type": "Other or Unknown", "name": null}, "geometry": {"type": "Point", "coordinates": [27.4843731, 5.6223335]}}, {"type": "Feature", "properties": {"school_type": "Other or Unknown", "name": "GRA"}, "geometry": {"type": "Point", "coordinates": [31.5598281, 4.8384299]}}, {"type": "Feature", "properties": {"school_type": "Other or Unknown", "name": "ROA Primary School"}, "geometry": {"type": "Point", "coordinates": [32.303072, 4.1219177]}}, {"type": "Feature", "properties": {"school_type": "Other or Unknown", "name": "University of Juba.College of comunity Studies and rural development"}, "geometry": {"type": "Point", "coordinates": [31.5827294, 4.8468946]}}, {"type": "Feature", "properties": {"school_type": "Other or Unknown", "name": "St. Joseph Basic School"}, "geometry": {"type": "Point", "coordinates": [31.6099732, 4.85065]}}]}