{"type": "FeatureCollection", "name": "strictly_filtered_education_facilities", "features": [{"type": "Feature", "properties": {"name": "Abeso Primary School", "school_type": "Primary School", "school_name": "Abeso Primary School", "school_type2": "Primary School", "osm_id,N,18,0": "5674586822", "osm_type,C,80": "nodes"}, "geometry": {"type": "Point", "coordinates": [30.5398329, 3.9752101]}}, {"type": "Feature", "properties": {"name": "Aciek Agriculture Training Centre", "school_type": "Other or Unknown", "school_name": "Aciek Agriculture Training Centre", "school_type5": "Other or Unknown", "osm_id,N,18,0": "8997003817", "osm_type,C,80": "nodes"}, "geometry": {"type": "Point", "coordinates": [32.4838109, 5.1023165]}}, {"type": "Feature", "properties": {"name": "Adibu Primary", "school_type": "Primary School", "school_name": "Adibu Primary", "school_type2": "Primary School", "addr_city,C,80": "Aweno Olwi", "source,C,80": "www.ubos.org", "osm_id,N,18,0": "4018757598", "osm_type,C,80": "nodes"}, "geometry": {"type": "Point", "coordinates": [32.7498252, 3.716471]}}, {"type": "Feature", "properties": {"name": "Adotic Primary School", "school_type": "Primary School", "school_name": "Adotic Primary School", "school_type2": "Primary School", "osm_id,N,18,0": "4784254024", "osm_type,C,80": "nodes"}, "geometry": {"type": "Point", "coordinates": [31.5601631, 4.8490143]}}, {"type": "Feature", "properties": {"name": "Afonji Primary School", "school_type": "Primary School", "school_name": "Afonji Primary School", "school_type2": "Primary School", "osm_id,N,18,0": "8625502017", "osm_type,C,80": "nodes"}, "geometry": {"type": "Point", "coordinates": [32.5521753, 4.3635218]}}, {"type": "Feature", "properties": {"name": "Agonk Bek Secondary School", "school_type": "Secondary School", "school_name": "Agonk Bek Secondary School", "school_type4": "Secondary School", "addr_city,C,80": "Juba", "osm_id,N,18,0": "3713157073", "osm_type,C,80": "nodes"}, "geometry": {"type": "Point", "coordinates": [31.6062426, 4.846156]}}, {"type": "Feature", "properties": {"name": "Agoro Nursery School", "school_type": "Nursery School", "school_name": "Agoro Nursery School", "school_type1": "Nursery School", "operator_type": "Public", "addr_city,C,80": "Angili", "source,C,80": "www.ubos.org", "osm_id,N,18,0": "3981350261", "osm_type,C,80": "nodes"}, "geometry": {"type": "Point", "coordinates": [30.9063061, 3.5633831]}}, {"type": "Feature", "properties": {"name": "Agoro Primary School", "school_type": "Primary School", "school_name": "Agoro Primary School", "school_type2": "Primary School", "operator_type": "Private", "addr_city,C,80": "Aludu", "source,C,80": "www.ubos.org", "osm_id,N,18,0": "4009758602", "osm_type,C,80": "nodes"}, "geometry": {"type": "Point", "coordinates": [31.2854122, 3.6751897]}}, {"type": "Feature", "properties": {"name": "Aguu Primary School", "school_type": "Primary School", "school_name": "Aguu Primary School", "school_type2": "Primary School", "operator_type": "Private", "addr_city,C,80": "Wale", "source,C,80": "www.ubos.org", "osm_id,N,18,0": "4009758601", "osm_type,C,80": "nodes"}, "geometry": {"type": "Point", "coordinates": [31.2883505, 3.6757411]}}, {"type": "Feature", "properties": {"name": "Akande Primary School", "school_type": "Primary School", "school_name": "Akande Primary School", "school_type2": "Primary School", "source,C,80": "HOT-Uganda", "osm_id,N,18,0": "5564478706", "osm_type,C,80": "nodes"}, "geometry": {"type": "Point", "coordinates": [31.2442851, 3.6303144]}}, {"type": "Feature", "properties": {"name": "Akka Community Primary School", "school_type": "Primary School", "school_name": "Akka Community Primary School", "school_type2": "Primary School", "source,C,80": "HOT-Uganda", "osm_id,N,18,0": "5564478708", "osm_type,C,80": "nodes"}, "geometry": {"type": "Point", "coordinates": [31.3200933, 3.7165483]}}, {"type": "Feature", "properties": {"name": "Akuem Primary School", "school_type": "Primary School", "school_name": "Akuem Primary School", "school_type2": "Primary School", "osm_id,N,18,0": "12101524223", "osm_type,C,80": "nodes"}, "geometry": {"type": "Point", "coordinates": [31.2899733, 3.6865483]}}, {"type": "Feature", "properties": {"name": "Akuem Primary School", "school_type": "Primary School", "school_name": "Akuem Primary School", "school_type2": "Primary School", "osm_id,N,18,0": "12101524223", "osm_type,C,80": "nodes"}, "geometry": {"type": "Point", "coordinates": [33.0756446, 8.6183535]}}, {"type": "Feature", "properties": {"name": "Alero School", "school_type": "Other or Unknown", "school_name": "Alero School", "school_type5": "Other or Unknown", "osm_id,N,18,0": "9008744517", "osm_type,C,80": "nodes"}, "geometry": {"type": "Point", "coordinates": [32.4752481, 5.0303943]}}, {"type": "Feature", "properties": {"name": "Aligo Primary School", "school_type": "Primary School", "school_name": "Aligo Primary School", "school_type2": "Primary School", "source,C,80": "HOT-Uganda", "osm_id,N,18,0": "5596056088", "osm_type,C,80": "nodes"}, "geometry": {"type": "Point", "coordinates": [31.2738433, 3.6270183]}}, {"type": "Feature", "properties": {"name": "Alimo Primary School", "school_type": "Primary School", "school_name": "Alimo Primary School", "school_type2": "Primary School", "source,C,80": "HOT-Uganda", "osm_id,N,18,0": "5588234987", "osm_type,C,80": "nodes"}, "geometry": {"type": "Point", "coordinates": [31.357955, 3.6514067]}}, {"type": "Feature", "properties": {"name": "Alipi Primary School", "school_type": "Primary School", "school_name": "Alipi Primary School", "school_type2": "Primary School", "source,C,80": "HOT-Uganda", "osm_id,N,18,0": "5596056083", "osm_type,C,80": "nodes"}, "geometry": {"type": "Point", "coordinates": [31.26638, 3.7229967]}}, {"type": "Feature", "properties": {"name": "Alliance Secondary School", "school_type": "Secondary School", "school_name": "Alliance Secondary School", "school_type4": "Secondary School", "osm_id,N,18,0": "5567194047", "osm_type,C,80": "nodes"}, "geometry": {"type": "Point", "coordinates": [30.5844392, 4.0266055]}}, {"type": "Feature", "properties": {"name": "Amadi 2 Primary School", "school_type": "Primary School", "school_name": "Amadi 2 Primary School", "school_type2": "Primary School", "osm_id,N,18,0": "5484142922", "osm_type,C,80": "nodes"}, "geometry": {"type": "Point", "coordinates": [27.4288796, 8.9083387]}}, {"type": "Feature", "properties": {"name": "Amadi Primary School", "school_type": "Primary School", "school_name": "Amadi Primary School", "school_type2": "Primary School", "osm_id,N,18,0": "5484112524", "osm_type,C,80": "nodes"}, "geometry": {"type": "Point", "coordinates": [27.4673967, 8.8915333]}}, {"type": "Feature", "properties": {"name": "Amalo", "school_type": "Other or Unknown", "school_name": "Amalo", "school_type5": "Other or Unknown", "osm_id,N,18,0": "5484141521", "osm_type,C,80": "nodes"}, "geometry": {"type": "Point", "coordinates": [27.5067967, 8.8612633]}}, {"type": "Feature", "properties": {"name": "Amara(Hs-Halls)", "school_type": "Other or Unknown", "school_name": "Amara(Hs-Halls)", "school_type5": "Other or Unknown", "osm_id,N,18,0": "5484142921", "osm_type,C,80": "nodes"}, "geometry": {"type": "Point", "coordinates": [27.5351183, 8.8724667]}}, {"type": "Feature", "properties": {"name": "Amua Primary School", "school_type": "Primary School", "school_name": "Amua Primary School", "school_type2": "Primary School", "osm_id,N,18,0": "5484133522", "osm_type,C,80": "nodes"}, "geometry": {"type": "Point", "coordinates": [27.7577167, 9.061668]}}, {"type": "Feature", "properties": {"name": "Andiriya Apaya", "school_type": "Other or Unknown", "school_name": "Andiriya Apaya", "osm_id,N,18,0": "5484125726", "osm_type,C,80": "nodes"}, "geometry": {"type": "Point", "coordinates": [27.3884608, 9.5919408]}}, {"type": "Feature", "properties": {"name": "Apwoyo Primary School", "school_type": "Primary School", "school_name": "Apwoyo Primary School", "school_type2": "Primary School", "osm_id,N,18,0": "5484133523", "osm_type,C,80": "nodes"}, "geometry": {"type": "Point", "coordinates": [27.5639583, 9.2040333]}}, {"type": "Feature", "properties": {"name": "Arra Primary School", "school_type": "Primary School", "school_name": "Arra Primary School", "school_type2": "Primary School", "osm_id,N,18,0": "5484138621", "osm_type,C,80": "nodes"}, "geometry": {"type": "Point", "coordinates": [27.510795, 9.2396483]}}, {"type": "Feature", "properties": {"name": "Athian P School", "school_type": "Primary School"}, "geometry": {"type": "Point", "coordinates": [32.260916, 3.8492222]}}, {"type": "Feature", "properties": {"name": "Ayaa Primary School", "school_type": "Primary School", "school_name": "Ayaa Primary School", "school_type2": "Primary School", "osm_id,N,18,0": "5427238121", "osm_type,C,80": "nodes"}, "geometry": {"type": "Point", "coordinates": [27.8701194, 9.0839103]}}, {"type": "Feature", "properties": {"name": "Ayipe Cope Primary School", "school_type": "Primary School", "school_name": "Ayipe Cope Primary School", "school_type2": "Primary School", "osm_id,N,18,0": "5428135922", "osm_type,C,80": "nodes"}, "geometry": {"type": "Point", "coordinates": [27.8704559, 9.0838638]}}, {"type": "Feature", "properties": {"name": "Baac P School", "school_type": "Primary School"}, "geometry": {"type": "Point", "coordinates": [27.5594831, 8.9494754]}}, {"type": "Feature", "properties": {"name": "Banika Islamic Primary School", "school_type": "Primary School", "school_name": "Banika Islamic Primary School", "school_type2": "Primary School", "osm_id,N,18,0": "10214491847", "osm_type,C,80": "nodes"}, "geometry": {"type": "Point", "coordinates": [32.3028106, 4.1236627]}}, {"type": "Feature", "properties": {"name": "Bari Displace", "school_type": "Other or Unknown", "school_name": "Bari Displace", "osm_id,N,18,0": "11805274275", "osm_type,C,80": "nodes"}, "geometry": {"type": "Point", "coordinates": [27.4643019, 5.5995726]}}, {"type": "Feature", "properties": {"name": "Bari Primary School", "school_type": "Primary School", "school_name": "Bari Primary School", "school_type2": "Primary School", "addr_city,C,80": "Congo", "source,C,80": "www.ubos.org", "osm_id,N,18,0": "4011863922", "osm_type,C,80": "nodes"}, "geometry": {"type": "Point", "coordinates": [31.7212, 3.6570922]}}, {"type": "Feature", "properties": {"name": "Baya Memorial Secondary School", "school_type": "Secondary School", "school_name": "Baya Memorial Secondary School", "school_type4": "Secondary School", "addr_city,C,80": "Central II", "source,C,80": "www.ubos.org", "osm_id,N,18,0": "4011863941", "osm_type,C,80": "nodes"}, "geometry": {"type": "Point", "coordinates": [31.728175, 3.6494166]}}, {"type": "Feature", "properties": {"name": "Baya Primary", "school_type": "Primary School", "school_name": "Baya Primary", "school_type2": "Primary School", "addr_city,C,80": "Moyipi", "source,C,80": "www.ubos.org", "osm_id,N,18,0": "4011863939", "osm_type,C,80": "nodes"}, "geometry": {"type": "Point", "coordinates": [31.7227834, 3.6451011]}}, {"type": "Feature", "properties": {"name": "Benagoro Primary School", "school_type": "Primary School", "school_name": "Benagoro Primary School", "school_type2": "Primary School", "addr_city,C,80": "Tendele", "source,C,80": "www.ubos.org", "osm_id,N,18,0": "3991260463", "osm_type,C,80": "nodes"}, "geometry": {"type": "Point", "coordinates": [30.9934605, 3.642304]}}, {"type": "Feature", "properties": {"name": "Besia Primary School", "school_type": "Primary School", "school_name": "Besia Primary School", "school_type2": "Primary School", "osm_id,N,18,0": "4135017673", "osm_type,C,80": "nodes"}, "geometry": {"type": "Point", "coordinates": [30.666055, 4.08651]}}, {"type": "Feature", "properties": {"name": "Bishop Asili Senior Secondary School", "school_type": "Secondary School", "school_name": "Bishop Asili Senior Secondary School", "school_type4": "Secondary School", "osm_id,N,18,0": "11673278670", "osm_type,C,80": "nodes"}, "geometry": {"type": "Point", "coordinates": [32.5427617, 3.9503331]}}, {"type": "Feature", "properties": {"name": "Bishop Gwynne School Of Theology", "school_type": "Other or Unknown", "school_name": "Bishop Gwynne School Of Theology", "osm_id,N,18,0": "11673280769", "osm_type,C,80": "nodes"}, "geometry": {"type": "Point", "coordinates": [32.5978381, 3.9182878]}}, {"type": "Feature", "properties": {"name": "Bitti Primary School", "school_type": "Primary School", "school_name": "Bitti Primary School", "school_type2": "Primary School", "osm_id,N,18,0": "5237808321", "osm_type,C,80": "nodes"}, "geometry": {"type": "Point", "coordinates": [31.5005387, 4.8666747]}}, {"type": "Feature", "properties": {"name": "Bright Hope Secondary School", "school_type": "Secondary School", "school_name": "Bright Hope Secondary School", "school_type4": "Secondary School", "operator_type": "Public", "addr_city,C,80": "Yweyope", "source,C,80": "www.ubos.org", "osm_id,N,18,0": "4025358126", "osm_type,C,80": "nodes"}, "geometry": {"type": "Point", "coordinates": [32.9062383, 3.7175856]}}, {"type": "Feature", "properties": {"name": "Bright Junior Nursery And Primary School", "school_type": "Nursery School, Primary School", "school_name": "Bright Junior Nursery And Primary School", "school_type1": "Nursery School", "school_type2": "Primary School", "osm_id,N,18,0": "11648884451", "osm_type,C,80": "nodes"}, "geometry": {"type": "Point", "coordinates": [31.7067939, 9.6208612]}}, {"type": "Feature", "properties": {"name": "Bura Primary School", "school_type": "Primary School", "school_name": "Bura Primary School", "school_type2": "Primary School", "addr_city,C,80": "Ubbi North", "source,C,80": "www.ubos.org", "osm_id,N,18,0": "4011877449", "osm_type,C,80": "nodes"}, "geometry": {"type": "Point", "coordinates": [31.8273027, 3.5880118]}}, {"type": "Feature", "properties": {"name": "Chokokbid Nursery School", "school_type": "Nursery School", "school_name": "Chokokbid Nursery School", "school_type1": "Nursery School", "operator_type": "Public", "addr_city,C,80": "Ogolo South", "source,C,80": "www.ubos.org", "osm_id,N,18,0": "4011877444", "osm_type,C,80": "nodes"}, "geometry": {"type": "Point", "coordinates": [31.9868019, 3.5484158]}}, {"type": "Feature", "properties": {"name": "City Academy Secondary School", "school_type": "Secondary School", "school_name": "City Academy Secondary School", "school_type4": "Secondary School", "operator_type": "Public", "addr_city,C,80": "Obero", "source,C,80": "www.ubos.org", "osm_id,N,18,0": "4011769443", "osm_type,C,80": "nodes"}, "geometry": {"type": "Point", "coordinates": [32.1110888, 3.5862842]}}, {"type": "Feature", "properties": {"name": "Crop Training Centre (Ctc)", "school_type": "Other or Unknown", "school_name": "Crop Training Centre (Ctc)", "name_en,C,80": "Kai Gai Primary", "osm_id,N,18,0": "4930493021", "osm_type,C,80": "nodes"}, "geometry": {"type": "Point", "coordinates": [30.1781666, 8.2838383]}}, {"type": "Feature", "properties": {"name": "Cwep Itc", "school_type": "Other or Unknown", "school_name": "Cwep Itc", "addr_city,C,80": "Eria South", "source,C,80": "www.ubos.org", "osm_id,N,18,0": "4011863926", "osm_type,C,80": "nodes"}, "geometry": {"type": "Point", "coordinates": [31.6429173, 3.5862318]}}, {"type": "Feature", "properties": {"name": "Dar El Salaam Primary School", "school_type": "Primary School", "school_name": "Dar El Salaam Primary School", "school_type2": "Primary School", "osm_id,N,18,0": "9879216217", "osm_type,C,80": "nodes"}, "geometry": {"type": "Point", "coordinates": [27.1842515, 8.6641406]}}, {"type": "Feature", "properties": {"name": "Disu Nursery School", "school_type": "Nursery School", "school_name": "Disu Nursery School", "school_type1": "Nursery School", "operator_type": "Private", "addr_city,C,80": "Angula Odiciri", "source,C,80": "www.ubos.org", "osm_id,N,18,0": "6082843154", "osm_type,C,80": "nodes"}, "geometry": {"type": "Point", "coordinates": [33.0028479, 3.811375]}}, {"type": "Feature", "properties": {"name": "Dong Abel Primary School", "school_type": "Primary School", "school_name": "Dong Abel Primary School", "school_type2": "Primary School", "operator_type": "Private", "addr_city,C,80": "Pobar Central", "source,C,80": "www.ubos.org", "osm_id,N,18,0": "4025358118", "osm_type,C,80": "nodes"}, "geometry": {"type": "Point", "coordinates": [33.0183326, 3.7961068]}}, {"type": "Feature", "properties": {"name": "Dongoda", "school_type": "Other or Unknown", "school_name": "Dongoda", "school_type5": "Other or Unknown", "osm_id,N,18,0": "6494910484", "osm_type,C,80": "nodes"}, "geometry": {"type": "Point", "coordinates": [33.0071394, 7.0492021]}}, {"type": "Feature", "properties": {"name": "Dufile Primary School", "school_type": "Primary School", "school_name": "Dufile Primary School", "school_type2": "Primary School", "operator_type": "Religious", "osm_id,N,18,0": "9794666104", "osm_type,C,80": "nodes"}, "geometry": {"type": "Point", "coordinates": [31.6135973, 4.8413329]}}, {"type": "Feature", "properties": {"name": "Eden Nursery School", "school_type": "Nursery School", "school_name": "Eden Nursery School", "school_type1": "Nursery School", "addr_city,C,80": "Afoji", "source,C,80": "www.ubos.org", "osm_id,N,18,0": "3961481601", "osm_type,C,80": "nodes"}, "geometry": {"type": "Point", "coordinates": [31.6819358, 3.6987227]}}, {"type": "Feature", "properties": {"name": "Elegu Primary School", "school_type": "Primary School", "school_name": "Elegu Primary School", "school_type2": "Primary School", "addr_city,C,80": "Eria North", "source,C,80": "www.ubos.org", "osm_id,N,18,0": "4011863916", "osm_type,C,80": "nodes"}, "geometry": {"type": "Point", "coordinates": [31.6555929, 3.6286904]}}, {"type": "Feature", "properties": {"name": "Emma Memorial Academy", "school_type": "Other or Unknown", "school_name": "Emma Memorial Academy", "school_type5": "Other or Unknown", "addr_city,C,80": "Lama", "source,C,80": "www.ubos.org", "osm_id,N,18,0": "4011863928", "osm_type,C,80": "nodes"}, "geometry": {"type": "Point", "coordinates": [31.7565617, 3.5980584]}}, {"type": "Feature", "properties": {"name": "Emma Memorial Secondary School", "school_type": "Secondary School", "school_name": "Emma Memorial Secondary School", "school_type4": "Secondary School", "operator_type": "Public", "addr_city,C,80": "Maru", "source,C,80": "www.ubos.org", "osm_id,N,18,0": "3980676944", "osm_type,C,80": "nodes"}, "geometry": {"type": "Point", "coordinates": [31.4538596, 3.6377148]}}, {"type": "Feature", "properties": {"name": "Emmanuel And Moni Nursery And Primary School", "school_type": "Nursery School, Primary School", "school_name": "Emmanuel And Moni Nursery And Primary School", "school_type1": "Nursery School", "school_type2": "Primary School", "operator_type": "Public", "addr_city,C,80": "Lokopio", "source,C,80": "www.ubos.org", "osm_id,N,18,0": "3980676950", "osm_type,C,80": "nodes"}, "geometry": {"type": "Point", "coordinates": [31.5405836, 3.7751383]}}, {"type": "Feature", "properties": {"name": "Emmanuel Kintergarden Nursery School", "school_type": "Nursery School", "school_name": "Emmanuel Kintergarden Nursery School", "school_type1": "Nursery School", "operator_type": "Public", "addr_city,C,80": "Nandre", "source,C,80": "www.ubos.org", "osm_id,N,18,0": "4009758605", "osm_type,C,80": "nodes"}, "geometry": {"type": "Point", "coordinates": [30.8498144, 3.8121788]}}, {"type": "Feature", "properties": {"name": "Epc Nehemiah Primary School", "school_type": "Primary School", "school_name": "Epc Nehemiah Primary School", "school_type2": "Primary School", "operator_type": "Public", "addr_city,C,80": "Gadania", "source,C,80": "www.ubos.org", "osm_id,N,18,0": "4009758598", "osm_type,C,80": "nodes"}, "geometry": {"type": "Point", "coordinates": [31.0464454, 3.8020861]}}, {"type": "Feature", "properties": {"name": "Era Primary School", "school_type": "Primary School", "school_name": "Era Primary School", "school_type2": "Primary School", "operator_type": "Public", "addr_city,C,80": "Juba", "source,C,80": "www.ubos.org", "osm_id,N,18,0": "4009758599", "osm_type,C,80": "nodes"}, "geometry": {"type": "Point", "coordinates": [31.0409443, 3.8145052]}}, {"type": "Feature", "properties": {"name": "Eremi Primary School", "school_type": "Primary School", "school_name": "Eremi Primary School", "school_type2": "Primary School", "addr_city,C,80": "Banika", "source,C,80": "www.ubos.org", "osm_id,N,18,0": "4009758589", "osm_type,C,80": "nodes"}, "geometry": {"type": "Point", "coordinates": [31.0855517, 3.6463458]}}, {"type": "Feature", "properties": {"name": "Erepi Primary School", "school_type": "Primary School", "school_name": "Erepi Primary School", "school_type2": "Primary School", "operator_type": "Public", "addr_city,C,80": "Toligamago", "source,C,80": "www.ubos.org", "osm_id,N,18,0": "3981533360", "osm_type,C,80": "nodes"}, "geometry": {"type": "Point", "coordinates": [30.8686038, 3.4787357]}}, {"type": "Feature", "properties": {"name": "Erepi Primary Teachers College", "school_type": "Primary School, College", "school_name": "Erepi Primary Teachers College", "school_type2": "Primary School", "school_type3": "College", "osm_id,N,18,0": "5632922721", "osm_type,C,80": "nodes"}, "geometry": {"type": "Point", "coordinates": [30.5831032, 4.0249202]}}, {"type": "Feature", "properties": {"name": "Eria Primary School", "school_type": "Primary School", "school_name": "Eria Primary School", "school_type2": "Primary School", "osm_id,N,18,0": "5567194046", "osm_type,C,80": "nodes"}, "geometry": {"type": "Point", "coordinates": [30.5838833, 4.0243979]}}, {"type": "Feature", "properties": {"name": "Etele Primary School", "school_type": "Primary School", "school_name": "Etele Primary School", "school_type2": "Primary School", "osm_id,N,18,0": "3740216979", "osm_type,C,80": "nodes"}, "geometry": {"type": "Point", "coordinates": [30.7378041, 4.0086199]}}, {"type": "Feature", "properties": {"name": "Ezibon Mandiri Secondary School", "school_type": "Secondary School", "school_name": "Ezibon Mandiri Secondary School", "school_type4": "Secondary School", "osm_id,N,18,0": "9035500324", "osm_type,C,80": "nodes"}, "geometry": {"type": "Point", "coordinates": [30.6746688, 4.1119317]}}, {"type": "Feature", "properties": {"name": "Ezra Baya Memorials Primary School", "school_type": "Primary School", "school_name": "Ezra Baya Memorials Primary School", "school_type2": "Primary School", "operator_type": "Religious", "osm_id,N,18,0": "8971387980", "osm_type,C,80": "nodes"}, "geometry": {"type": "Point", "coordinates": [30.6659637, 4.0954398]}}, {"type": "Feature", "properties": {"name": "Faka Primary School", "school_type": "Primary School", "school_name": "Faka Primary School", "school_type2": "Primary School", "operator_type": "Religious", "osm_id,N,18,0": "8974883276", "osm_type,C,80": "nodes"}, "geometry": {"type": "Point", "coordinates": [30.6485288, 4.0770002]}}, {"type": "Feature", "properties": {"name": "Fataha Primary School", "school_type": "Primary School", "school_name": "Fataha Primary School", "school_type2": "Primary School", "osm_id,N,18,0": "4563411302", "osm_type,C,80": "nodes"}, "geometry": {"type": "Point", "coordinates": [30.7220321, 4.0395759]}}, {"type": "Feature", "properties": {"name": "Father Biribawo Primary School", "school_type": "Primary School", "school_name": "Father Biribawo Primary School", "school_type2": "Primary School", "osm_id,N,18,0": "4784253924", "osm_type,C,80": "nodes"}, "geometry": {"type": "Point", "coordinates": [31.5632263, 4.8552305]}}, {"type": "Feature", "properties": {"name": "Father Biribawo Secondary School", "school_type": "Secondary School", "school_name": "Father Biribawo Secondary School", "school_type4": "Secondary School", "operator_type": "Private", "addr_city,C,80": "Gadania", "source,C,80": "www.ubos.org", "osm_id,N,18,0": "4009758606", "osm_type,C,80": "nodes"}, "geometry": {"type": "Point", "coordinates": [31.0531541, 3.8099184]}}, {"type": "Feature", "properties": {"name": "Fundraising Nursery And Primary School", "school_type": "Nursery School, Primary School", "school_name": "Fundraising Nursery And Primary School", "school_type1": "Nursery School", "school_type2": "Primary School", "osm_id,N,18,0": "4135003338", "osm_type,C,80": "nodes"}, "geometry": {"type": "Point", "coordinates": [30.6633213, 4.0914981]}}, {"type": "Feature", "properties": {"name": "Gbari Primary School", "school_type": "Primary School", "school_name": "Gbari Primary School", "school_type2": "Primary School", "osm_id,N,18,0": "9387578321", "osm_type,C,80": "nodes"}, "geometry": {"type": "Point", "coordinates": [31.5907518, 4.8414249]}}, {"type": "Feature", "properties": {"name": "Geria Bush School", "school_type": "Other or Unknown", "school_name": "Geria Bush School", "school_type5": "Other or Unknown", "osm_id,N,18,0": "10570436118", "osm_type,C,80": "nodes"}, "geometry": {"type": "Point", "coordinates": [31.5674235, 4.8385843]}}, {"type": "Feature", "properties": {"name": "Goboro Primary School", "school_type": "Primary School", "school_name": "Goboro Primary School", "school_type2": "Primary School", "osm_id,N,18,0": "5484114125", "osm_type,C,80": "nodes"}, "geometry": {"type": "Point", "coordinates": [31.585328, 4.8458726]}}, {"type": "Feature", "properties": {"name": "Goboro Primary School", "school_type": "Primary School", "school_name": "Goboro Primary School", "school_type2": "Primary School", "osm_id,N,18,0": "5484114125", "osm_type,C,80": "nodes"}, "geometry": {"type": "Point", "coordinates": [27.6179017, 8.9617867]}}, {"type": "Feature", "properties": {"name": "Goopi Primary School", "school_type": "Primary School", "school_name": "Goopi Primary School", "school_type2": "Primary School", "osm_id,N,18,0": "5484112523", "osm_type,C,80": "nodes"}, "geometry": {"type": "Point", "coordinates": [27.4286367, 8.9074683]}}, {"type": "Feature", "properties": {"name": "Gra", "school_type": "Other or Unknown", "school_name": "Gra", "school_type5": "Other or Unknown", "osm_id,N,18,0": "5414591822", "osm_type,C,80": "nodes"}, "geometry": {"type": "Point", "coordinates": [27.5939, 8.9403533]}}, {"type": "Feature", "properties": {"name": "Gulu One Primary School", "school_type": "Primary School", "school_name": "Gulu One Primary School", "school_type2": "Primary School", "addr_city,C,80": "Celecelea West", "source,C,80": "www.ubos.org", "osm_id,N,18,0": "4011863911", "osm_type,C,80": "nodes"}, "geometry": {"type": "Point", "coordinates": [31.7300351, 3.6433771]}}, {"type": "Feature", "properties": {"name": "Halbul Primary School", "school_type": "Primary School", "school_name": "Halbul Primary School", "school_type2": "Primary School", "addr_city,C,80": "Toloro", "source,C,80": "www.ubos.org", "osm_id,N,18,0": "4011863948", "osm_type,C,80": "nodes"}, "geometry": {"type": "Point", "coordinates": [31.7024245, 3.64788]}}, {"type": "Feature", "properties": {"name": "Hia Baraka Nursery And Primary School", "school_type": "Nursery School, Primary School", "school_name": "Hia Baraka Nursery And Primary School", "school_type1": "Nursery School", "school_type2": "Primary School", "addr_city,C,80": "Pakaruhwe", "source,C,80": "www.ubos.org", "osm_id,N,18,0": "4011877435", "osm_type,C,80": "nodes"}, "geometry": {"type": "Point", "coordinates": [31.9092377, 3.6151891]}}, {"type": "Feature", "properties": {"name": "Home Dave Primary School", "school_type": "Primary School", "school_name": "Home Dave Primary School", "school_type2": "Primary School", "operator_type": "Public", "addr_city,C,80": "Swinga", "source,C,80": "www.ubos.org", "osm_id,N,18,0": "4011769445", "osm_type,C,80": "nodes"}, "geometry": {"type": "Point", "coordinates": [31.7871264, 3.6223636]}}, {"type": "Feature", "properties": {"name": "House Of Hope", "school_type": "Other or Unknown", "school_name": "House Of Hope", "osm_id,N,18,0": "5411478921", "osm_type,C,80": "nodes"}, "geometry": {"type": "Point", "coordinates": [27.5163683, 8.9544783]}}, {"type": "Feature", "properties": {"name": "Imotong Life Skills Centre", "school_type": "Other or Unknown", "school_name": "Imotong Life Skills Centre", "school_type5": "Other or Unknown", "osm_id,N,18,0": "9311393017", "osm_type,C,80": "nodes"}, "geometry": {"type": "Point", "coordinates": [28.8234049, 9.3879903]}}, {"type": "Feature", "properties": {"name": "Janga Primary School", "school_type": "Primary School", "school_name": "Janga Primary School", "school_type2": "Primary School", "operator_type": "Private", "addr_city,C,80": "Simba", "source,C,80": "www.ubos.org", "osm_id,N,18,0": "4025358128", "osm_type,C,80": "nodes"}, "geometry": {"type": "Point", "coordinates": [32.8808099, 3.7187829]}}, {"type": "Feature", "properties": {"name": "Jebel Church", "school_type": "Other or Unknown", "school_name": "Jebel Church", "school_type5": "Other or Unknown", "addr_city,C,80": "Paanjara", "source,C,80": "www.ubos.org", "osm_id,N,18,0": "4011877445", "osm_type,C,80": "nodes"}, "geometry": {"type": "Point", "coordinates": [31.964447, 3.5742255]}}, {"type": "Feature", "properties": {"name": "Kagoropa Primary School", "school_type": "Primary School", "school_name": "Kagoropa Primary School", "school_type2": "Primary School", "operator_type": "Public", "addr_city,C,80": "Lamwoka B", "source,C,80": "www.ubos.org", "osm_id,N,18,0": "4025358123", "osm_type,C,80": "nodes"}, "geometry": {"type": "Point", "coordinates": [32.9114119, 3.7781922]}}, {"type": "Feature", "properties": {"name": "Kai Gai Primary", "school_type": "Primary School", "school_name": "Kai Gai Primary", "school_type2": "Primary School", "operator_type": "Public", "addr_city,C,80": "Pakinyi", "source,C,80": "www.ubos.org", "osm_id,N,18,0": "4025358120", "osm_type,C,80": "nodes"}, "geometry": {"type": "Point", "coordinates": [32.9992768, 3.7549375]}}, {"type": "Feature", "properties": {"name": "Karika One Nursery And Primary School", "school_type": "Nursery School, Primary School", "school_name": "Karika One Nursery And Primary School", "school_type1": "Nursery School", "school_type2": "Primary School", "addr_city,C,80": "Abeso", "source,C,80": "www.ubos.org", "osm_id,N,18,0": "4011877433", "osm_type,C,80": "nodes"}, "geometry": {"type": "Point", "coordinates": [31.8652327, 3.6632404]}}, {"type": "Feature", "properties": {"name": "Karkia Ll Primary And Pre School", "school_type": "Primary School", "school_name": "Karkia Ll Primary And Pre School", "school_type2": "Primary School", "addr_city,C,80": "Pamoyi", "source,C,80": "www.ubos.org", "osm_id,N,18,0": "4011877436", "osm_type,C,80": "nodes"}, "geometry": {"type": "Point", "coordinates": [31.8314812, 3.6745119]}}, {"type": "Feature", "properties": {"name": "Kaya Primary School", "school_type": "Primary School", "school_name": "Kaya Primary School", "school_type2": "Primary School", "addr_city,C,80": "Agugwe", "source,C,80": "www.ubos.org", "osm_id,N,18,0": "4011877443", "osm_type,C,80": "nodes"}, "geometry": {"type": "Point", "coordinates": [31.8329546, 3.6458554]}}, {"type": "Feature", "properties": {"name": "Kendra Primary School", "school_type": "Primary School", "school_name": "Kendra Primary School", "school_type2": "Primary School", "addr_city,C,80": "Pamangara", "source,C,80": "www.ubos.org", "osm_id,N,18,0": "4011877446", "osm_type,C,80": "nodes"}, "geometry": {"type": "Point", "coordinates": [31.9473775, 3.5730412]}}, {"type": "Feature", "properties": {"name": "Kerwa Primary School", "school_type": "Primary School", "school_name": "Kerwa Primary School", "school_type2": "Primary School", "addr_city,C,80": "Cinyi East", "source,C,80": "www.ubos.org", "osm_id,N,18,0": "4011863908", "osm_type,C,80": "nodes"}, "geometry": {"type": "Point", "coordinates": [31.8013076, 3.6331083]}}, {"type": "Feature", "properties": {"name": "Kerwa Secondary School", "school_type": "Secondary School", "school_name": "Kerwa Secondary School", "school_type4": "Secondary School", "addr_city,C,80": "Alu", "source,C,80": "www.ubos.org", "osm_id,N,18,0": "4011863907", "osm_type,C,80": "nodes"}, "geometry": {"type": "Point", "coordinates": [31.7920685, 3.6489941]}}, {"type": "Feature", "properties": {"name": "Kilaji Primary School", "school_type": "Primary School", "school_name": "Kilaji Primary School", "school_type2": "Primary School", "addr_city,C,80": "Besia", "source,C,80": "www.ubos.org", "osm_id,N,18,0": "4011863910", "osm_type,C,80": "nodes"}, "geometry": {"type": "Point", "coordinates": [31.7184279, 3.6481137]}}, {"type": "Feature", "properties": {"name": "Koloa Primary School", "school_type": "Primary School", "school_name": "Koloa Primary School", "school_type2": "Primary School", "addr_city,C,80": "Aringa East", "source,C,80": "www.ubos.org", "osm_id,N,18,0": "4011863913", "osm_type,C,80": "nodes"}, "geometry": {"type": "Point", "coordinates": [31.8124055, 3.6497818]}}, {"type": "Feature", "properties": {"name": "Kolokolo Primary School", "school_type": "Primary School", "school_name": "Kolokolo Primary School", "school_type2": "Primary School", "addr_city,C,80": "Erepi South", "source,C,80": "www.ubos.org", "osm_id,N,18,0": "4011863914", "osm_type,C,80": "nodes"}, "geometry": {"type": "Point", "coordinates": [31.7653035, 3.6496465]}}, {"type": "Feature", "properties": {"name": "Kololo Community Primary School", "school_type": "Primary School", "school_name": "Kololo Community Primary School", "school_type2": "Primary School", "addr_city,C,80": "Oyajo", "source,C,80": "www.ubos.org", "osm_id,N,18,0": "4011863912", "osm_type,C,80": "nodes"}, "geometry": {"type": "Point", "coordinates": [31.6810057, 3.6326138]}}, {"type": "Feature", "properties": {"name": "Kongolo Primary School", "school_type": "Primary School", "school_name": "Kongolo Primary School", "school_type2": "Primary School", "addr_city,C,80": "Erepi South", "source,C,80": "www.ubos.org", "osm_id,N,18,0": "4011863915", "osm_type,C,80": "nodes"}, "geometry": {"type": "Point", "coordinates": [31.7653862, 3.6480777]}}, {"type": "Feature", "properties": {"name": "Koromula Primary School", "school_type": "Primary School", "school_name": "Koromula Primary School", "school_type2": "Primary School", "addr_city,C,80": "Pamoju East", "source,C,80": "www.ubos.org", "osm_id,N,18,0": "4011863918", "osm_type,C,80": "nodes"}, "geometry": {"type": "Point", "coordinates": [31.7366691, 3.6279725]}}, {"type": "Feature", "properties": {"name": "Kotobi Secondary School", "school_type": "Secondary School", "school_name": "Kotobi Secondary School", "school_type4": "Secondary School", "addr_city,C,80": "Maduga", "source,C,80": "www.ubos.org", "osm_id,N,18,0": "4011863919", "osm_type,C,80": "nodes"}, "geometry": {"type": "Point", "coordinates": [31.7132987, 3.6564618]}}, {"type": "Feature", "properties": {"name": "Kotobi Vocational Center", "school_type": "Other or Unknown", "school_name": "Kotobi Vocational Center", "school_type5": "Other or Unknown", "addr_city,C,80": "Pamoju West", "source,C,80": "www.ubos.org", "osm_id,N,18,0": "4011863927", "osm_type,C,80": "nodes"}, "geometry": {"type": "Point", "coordinates": [31.7230345, 3.6357954]}}, {"type": "Feature", "properties": {"name": "Kulundu Primary School", "school_type": "Primary School", "school_name": "Kulundu Primary School", "school_type2": "Primary School", "addr_city,C,80": "Lokwa", "source,C,80": "www.ubos.org", "osm_id,N,18,0": "4011863932", "osm_type,C,80": "nodes"}, "geometry": {"type": "Point", "coordinates": [31.7885631, 3.6784376]}}, {"type": "Feature", "properties": {"name": "Kyeyo Primary School", "school_type": "Primary School", "school_name": "Kyeyo Primary School", "school_type2": "Primary School", "addr_city,C,80": "Pamenyua", "source,C,80": "www.ubos.org", "osm_id,N,18,0": "4011863934", "osm_type,C,80": "nodes"}, "geometry": {"type": "Point", "coordinates": [31.7926227, 3.6713098]}}, {"type": "Feature", "properties": {"name": "Ladder Kindergarten And Primary School", "school_type": "Primary School", "school_name": "Ladder Kindergarten And Primary School", "school_type2": "Primary School", "addr_city,C,80": "Bilinyo", "source,C,80": "www.ubos.org", "osm_id,N,18,0": "4011863935", "osm_type,C,80": "nodes"}, "geometry": {"type": "Point", "coordinates": [31.7107263, 3.6659043]}}, {"type": "Feature", "properties": {"name": "Lafon Primary School", "school_type": "Primary School", "school_name": "Lafon Primary School", "school_type2": "Primary School", "addr_city,C,80": "Minze", "source,C,80": "www.ubos.org", "osm_id,N,18,0": "4011863930", "osm_type,C,80": "nodes"}, "geometry": {"type": "Point", "coordinates": [31.7032018, 3.6834434]}}, {"type": "Feature", "properties": {"name": "Lama Primary School", "school_type": "Primary School", "school_name": "Lama Primary School", "school_type2": "Primary School", "addr_city,C,80": "Parego", "source,C,80": "www.ubos.org", "osm_id,N,18,0": "4011863933", "osm_type,C,80": "nodes"}, "geometry": {"type": "Point", "coordinates": [31.7457991, 3.6599912]}}, {"type": "Feature", "properties": {"name": "Lamuribenge Vocational School", "school_type": "Other or Unknown", "school_name": "Lamuribenge Vocational School", "school_type5": "Other or Unknown", "addr_city,C,80": "Maduga", "source,C,80": "www.ubos.org", "osm_id,N,18,0": "4011863936", "osm_type,C,80": "nodes"}, "geometry": {"type": "Point", "coordinates": [31.7164227, 3.656464]}}, {"type": "Feature", "properties": {"name": "Lamwoka Primary School", "school_type": "Primary School", "school_name": "Lamwoka Primary School", "school_type2": "Primary School", "addr_city,C,80": "Maduga", "source,C,80": "www.ubos.org", "osm_id,N,18,0": "4011863937", "osm_type,C,80": "nodes"}, "geometry": {"type": "Point", "coordinates": [31.7160959, 3.657309]}}, {"type": "Feature", "properties": {"name": "Lechu Primary School", "school_type": "Primary School", "school_name": "Lechu Primary School", "school_type2": "Primary School", "addr_city,C,80": "Elenderea", "source,C,80": "www.ubos.org", "osm_id,N,18,0": "4011863940", "osm_type,C,80": "nodes"}, "geometry": {"type": "Point", "coordinates": [31.724808, 3.6588595]}}, {"type": "Feature", "properties": {"name": "Ledingwa Primary School", "school_type": "Primary School", "school_name": "Ledingwa Primary School", "school_type2": "Primary School", "addr_city,C,80": "Metu Tr.centre", "source,C,80": "www.ubos.org", "osm_id,N,18,0": "4011863942", "osm_type,C,80": "nodes"}, "geometry": {"type": "Point", "coordinates": [31.7899042, 3.6723835]}}, {"type": "Feature", "properties": {"name": "Lekuangole Primary School", "school_type": "Primary School", "school_name": "Lekuangole Primary School", "school_type2": "Primary School", "addr_city,C,80": "Ramogi", "source,C,80": "www.ubos.org", "osm_id,N,18,0": "4011863943", "osm_type,C,80": "nodes"}, "geometry": {"type": "Point", "coordinates": [31.7558305, 3.6494509]}}, {"type": "Feature", "properties": {"name": "Lendrewa Primary School", "school_type": "Primary School", "school_name": "Lendrewa Primary School", "school_type2": "Primary School", "addr_city,C,80": "Moyipi", "source,C,80": "www.ubos.org", "osm_id,N,18,0": "4011863945", "osm_type,C,80": "nodes"}, "geometry": {"type": "Point", "coordinates": [31.7201137, 3.6392951]}}, {"type": "Feature", "properties": {"name": "Lerwa Primary School", "school_type": "Primary School", "school_name": "Lerwa Primary School", "school_type2": "Primary School", "addr_city,C,80": "Juluhwe", "source,C,80": "www.ubos.org", "osm_id,N,18,0": "4011863946", "osm_type,C,80": "nodes"}, "geometry": {"type": "Point", "coordinates": [31.7872186, 3.6714134]}}, {"type": "Feature", "properties": {"name": "Light House School", "school_type": "Other or Unknown", "school_name": "Light House School", "school_type5": "Other or Unknown", "addr_city,C,80": "Adua", "source,C,80": "www.ubos.org", "osm_id,N,18,0": "4011863944", "osm_type,C,80": "nodes"}, "geometry": {"type": "Point", "coordinates": [31.7112488, 3.6565721]}}, {"type": "Feature", "properties": {"name": "Limidia High Secondary School", "school_type": "Secondary School", "school_name": "Limidia High Secondary School", "school_type4": "Secondary School", "osm_id,N,18,0": "7256332945", "osm_type,C,80": "nodes"}, "geometry": {"type": "Point", "coordinates": [31.5274036, 4.8094224]}}, {"type": "Feature", "properties": {"name": "Limidia Primary School", "school_type": "Primary School", "school_name": "Limidia Primary School", "school_type2": "Primary School", "addr_city,C,80": "Elegu", "source,C,80": "www.ubos.org", "osm_id,N,18,0": "3961481602", "osm_type,C,80": "nodes"}, "geometry": {"type": "Point", "coordinates": [31.7986925, 3.7435354]}}, {"type": "Feature", "properties": {"name": "Liri Primary School", "school_type": "Primary School", "school_name": "Liri Primary School", "school_type2": "Primary School", "addr_city,C,80": "Kweyo", "source,C,80": "www.ubos.org", "osm_id,N,18,0": "3961481605", "osm_type,C,80": "nodes"}, "geometry": {"type": "Point", "coordinates": [31.783359, 3.7126414]}}, {"type": "Feature", "properties": {"name": "Liwa Primary School", "school_type": "Primary School", "school_name": "Liwa Primary School", "school_type2": "Primary School", "addr_city,C,80": "Minze", "source,C,80": "www.ubos.org", "osm_id,N,18,0": "3961481606", "osm_type,C,80": "nodes"}, "geometry": {"type": "Point", "coordinates": [31.7038444, 3.6897195]}}, {"type": "Feature", "properties": {"name": "Logoa Primary School", "school_type": "Primary School", "school_name": "Logoa Primary School", "school_type2": "Primary School", "addr_city,C,80": "Gbari", "source,C,80": "www.ubos.org", "osm_id,N,18,0": "3961481603", "osm_type,C,80": "nodes"}, "geometry": {"type": "Point", "coordinates": [31.8100618, 3.7851736]}}, {"type": "Feature", "properties": {"name": "Logoba Primary School", "school_type": "Primary School", "school_name": "Logoba Primary School", "school_type2": "Primary School", "addr_city,C,80": "Pamonye", "source,C,80": "www.ubos.org", "osm_id,N,18,0": "3961481604", "osm_type,C,80": "nodes"}, "geometry": {"type": "Point", "coordinates": [31.7749364, 3.6947734]}}, {"type": "Feature", "properties": {"name": "Logoba Secondary School", "school_type": "Secondary School", "school_name": "Logoba Secondary School", "school_type4": "Secondary School", "addr_city,C,80": "Masaloa East", "source,C,80": "www.ubos.org", "osm_id,N,18,0": "3978521602", "osm_type,C,80": "nodes"}, "geometry": {"type": "Point", "coordinates": [31.6105362, 3.6021209]}}, {"type": "Feature", "properties": {"name": "Lokwa Primary School", "school_type": "Primary School", "school_name": "Lokwa Primary School", "school_type2": "Primary School", "operator_type": "Public", "addr_city,C,80": "Kaminga", "source,C,80": "www.ubos.org", "osm_id,N,18,0": "3991260460", "osm_type,C,80": "nodes"}, "geometry": {"type": "Point", "coordinates": [30.9591617, 3.6516837]}}, {"type": "Feature", "properties": {"name": "Lokwa Secondary School", "school_type": "Secondary School", "school_name": "Lokwa Secondary School", "school_type4": "Secondary School", "operator_type": "Public", "addr_city,C,80": "Abachi", "source,C,80": "www.ubos.org", "osm_id,N,18,0": "3981533357", "osm_type,C,80": "nodes"}, "geometry": {"type": "Point", "coordinates": [30.8903526, 3.4978966]}}, {"type": "Feature", "properties": {"name": "Lunguma Primary School", "school_type": "Primary School", "school_name": "Lunguma Primary School", "name_en,C,80": "Pibor boys primary school", "school_type2": "Primary School", "osm_id,N,18,0": "13351089536", "osm_type,C,80": "nodes"}, "geometry": {"type": "Point", "coordinates": [33.1287333, 6.8006746]}}, {"type": "Feature", "properties": {"name": "Lurunya Primary School", "school_type": "Primary School", "school_name": "Lurunya Primary School", "school_type2": "Primary School", "operator_type": "Public", "addr_city,C,80": "Logoa", "source,C,80": "www.ubos.org", "osm_id,N,18,0": "3999202747", "osm_type,C,80": "nodes"}, "geometry": {"type": "Point", "coordinates": [30.8400597, 3.479288]}}, {"type": "Feature", "properties": {"name": "Lutaya Primary School", "school_type": "Primary School", "school_name": "Lutaya Primary School", "school_type2": "Primary School", "operator_type": "Public", "osm_id,N,18,0": "7172914211", "osm_type,C,80": "nodes"}, "geometry": {"type": "Point", "coordinates": [27.5100163, 8.955537]}}, {"type": "Feature", "properties": {"name": "Mada Primary School", "school_type": "Primary School", "school_name": "Mada Primary School", "school_type2": "Primary School", "osm_id,N,18,0": "5414590522", "osm_type,C,80": "nodes"}, "geometry": {"type": "Point", "coordinates": [27.509962, 8.9556422]}}, {"type": "Feature", "properties": {"name": "Magwi Central Primary School", "school_type": "Primary School", "school_name": "Magwi Central Primary School", "school_type2": "Primary School", "addr_city,C,80": "Lamuribenge A", "source,C,80": "www.ubos.org", "osm_id,N,18,0": "4025358122", "osm_type,C,80": "nodes"}, "geometry": {"type": "Point", "coordinates": [33.0348262, 3.7642345]}}, {"type": "Feature", "properties": {"name": "Mahat Primary School", "school_type": "Primary School", "school_name": "Mahat Primary School", "school_type2": "Primary School", "operator_type": "Public", "addr_city,C,80": "Pobar Central", "source,C,80": "www.ubos.org", "osm_id,N,18,0": "4025358119", "osm_type,C,80": "nodes"}, "geometry": {"type": "Point", "coordinates": [33.0181339, 3.8037333]}}, {"type": "Feature", "properties": {"name": "Majak P. Sch", "school_type": "Other or Unknown"}, "geometry": {"type": "Point", "coordinates": [31.9133594, 3.6401976]}}, {"type": "Feature", "properties": {"name": "Majak P. School", "school_type": "Other or Unknown"}, "geometry": {"type": "Point", "coordinates": [31.9253736, 3.5708094]}}, {"type": "Feature", "properties": {"name": "Majak Primary School", "school_type": "Primary School", "school_name": "Majak Primary School", "school_type2": "Primary School", "operator_type": "Public", "addr_city,C,80": "Lokujo", "source,C,80": "www.ubos.org", "osm_id,N,18,0": "3991255149", "osm_type,C,80": "nodes"}, "geometry": {"type": "Point", "coordinates": [30.9517609, 3.5777727]}}, {"type": "Feature", "properties": {"name": "Makuen Agap P. School", "school_type": "Other or Unknown", "school_name": "Makuen Agap P. School", "addr_city,C,80": "Lokwa", "source,C,80": "www.ubos.org", "osm_id,N,18,0": "4011863931", "osm_type,C,80": "nodes"}, "geometry": {"type": "Point", "coordinates": [31.7885311, 3.6771374]}}, {"type": "Feature", "properties": {"name": "Malualbai P School", "school_type": "Primary School", "school_name": "Malualbai P School", "addr_city,C,80": "Maduga", "source,C,80": "www.ubos.org", "osm_id,N,18,0": "4011863920", "osm_type,C,80": "nodes"}, "geometry": {"type": "Point", "coordinates": [31.715133, 3.6583772]}}, {"type": "Feature", "properties": {"name": "Mama Alice Nursery School", "school_type": "Nursery School", "school_name": "Mama Alice Nursery School", "school_type1": "Nursery School", "addr_city,C,80": "Liri", "source,C,80": "www.ubos.org", "osm_id,N,18,0": "4011863929", "osm_type,C,80": "nodes"}, "geometry": {"type": "Point", "coordinates": [31.7660657, 3.6236449]}}, {"type": "Feature", "properties": {"name": "Mama Kezia Primary School", "school_type": "Primary School", "school_name": "Mama Kezia Primary School", "school_type2": "Primary School", "addr_city,C,80": "Kololo", "source,C,80": "www.ubos.org", "osm_id,N,18,0": "3991255154", "osm_type,C,80": "nodes"}, "geometry": {"type": "Point", "coordinates": [30.9798157, 3.6250769]}}, {"type": "Feature", "properties": {"name": "Mandi Primary School", "school_type": "Primary School", "school_name": "Mandi Primary School", "school_type2": "Primary School", "operator_type": "Public", "addr_city,C,80": "Fataha", "source,C,80": "www.ubos.org", "osm_id,N,18,0": "3999202723", "osm_type,C,80": "nodes"}, "geometry": {"type": "Point", "coordinates": [30.9004883, 3.6010663]}}, {"type": "Feature", "properties": {"name": "Masaloa Primary School", "school_type": "Primary School", "school_name": "Masaloa Primary School", "school_type2": "Primary School", "addr_city,C,80": "Elenderea", "source,C,80": "www.ubos.org", "osm_id,N,18,0": "4011863947", "osm_type,C,80": "nodes"}, "geometry": {"type": "Point", "coordinates": [31.7288569, 3.6566247]}}, {"type": "Feature", "properties": {"name": "Matu Primary School", "school_type": "Primary School", "school_name": "Matu Primary School", "school_type2": "Primary School", "osm_id,N,18,0": "3456334859", "osm_type,C,80": "nodes"}, "geometry": {"type": "Point", "coordinates": [30.6690149, 4.0983191]}}, {"type": "Feature", "properties": {"name": "Mbara Primary School", "school_type": "Primary School", "school_name": "Mbara Primary School", "school_type2": "Primary School", "osm_id,N,18,0": "9035439849", "osm_type,C,80": "nodes"}, "geometry": {"type": "Point", "coordinates": [30.6982053, 4.0964985]}}, {"type": "Feature", "properties": {"name": "Medewu Primary School", "school_type": "Primary School", "school_name": "Medewu Primary School", "school_type2": "Primary School", "osm_id,N,18,0": "9079619358", "osm_type,C,80": "nodes"}, "geometry": {"type": "Point", "coordinates": [30.6869656, 4.0940847]}}, {"type": "Feature", "properties": {"name": "Mena Primary School", "school_type": "Primary School", "school_name": "Mena Primary School", "school_type2": "Primary School", "addr_city,C,80": "Wabanga", "source,C,80": "www.ubos.org", "osm_id,N,18,0": "4009758590", "osm_type,C,80": "nodes"}, "geometry": {"type": "Point", "coordinates": [31.1296488, 3.9014432]}}, {"type": "Feature", "properties": {"name": "Mentor Primary School", "school_type": "Primary School", "school_name": "Mentor Primary School", "school_type2": "Primary School", "operator_type": "Ngo", "source,C,80": "survey", "osm_id,N,18,0": "2785620009", "osm_type,C,80": "nodes"}, "geometry": {"type": "Point", "coordinates": [33.7417418, 9.9901912]}}, {"type": "Feature", "properties": {"name": "Merwa Primary School", "school_type": "Primary School", "school_name": "Merwa Primary School", "school_type2": "Primary School", "osm_id,N,18,0": "5434811521", "osm_type,C,80": "nodes"}, "geometry": {"type": "Point", "coordinates": [27.869875, 9.08371]}}, {"type": "Feature", "properties": {"name": "Merwa Progressive College", "school_type": "College", "school_name": "Merwa Progressive College", "school_type3": "College", "osm_id,N,18,0": "3536767652", "osm_type,C,80": "nodes"}, "geometry": {"type": "Point", "coordinates": [30.688314, 4.0947862]}}, {"type": "Feature", "properties": {"name": "Metu Secondary School", "school_type": "Secondary School", "school_name": "Metu Secondary School", "school_type4": "Secondary School", "osm_id,N,18,0": "6349361479", "osm_type,C,80": "nodes"}, "geometry": {"type": "Point", "coordinates": [31.451535, 3.6380667]}}, {"type": "Feature", "properties": {"name": "Mianga Nursery School", "school_type": "Nursery School", "school_name": "Mianga Nursery School", "school_type1": "Nursery School", "osm_id,N,18,0": "6349361480", "osm_type,C,80": "nodes"}, "geometry": {"type": "Point", "coordinates": [31.4535667, 3.6424883]}}, {"type": "Feature", "properties": {"name": "Mijale Amazing Grace Baptist Nursery And Primary School", "school_type": "Nursery School, Primary School", "school_name": "Mijale Amazing Grace Baptist Nursery And Primary School", "school_type1": "Nursery School", "school_type2": "Primary School", "source,C,80": "HOT-Uganda", "osm_id,N,18,0": "5588234993", "osm_type,C,80": "nodes"}, "geometry": {"type": "Point", "coordinates": [31.2934167, 3.659955]}}, {"type": "Feature", "properties": {"name": "Mijale Primary School", "school_type": "Primary School", "school_name": "Mijale Primary School", "school_type2": "Primary School", "source,C,80": "HOT-Uganda", "osm_id,N,18,0": "5588234994", "osm_type,C,80": "nodes"}, "geometry": {"type": "Point", "coordinates": [31.2852017, 3.64799]}}, {"type": "Feature", "properties": {"name": "Mijikita Primary School", "school_type": "Primary School", "school_name": "Mijikita Primary School", "school_type2": "Primary School", "source,C,80": "HOT-Uganda", "osm_id,N,18,0": "5588234992", "osm_type,C,80": "nodes"}, "geometry": {"type": "Point", "coordinates": [31.27517, 3.657095]}}, {"type": "Feature", "properties": {"name": "Miri Mojo Primary School", "school_type": "Primary School", "school_name": "Miri Mojo Primary School", "school_type2": "Primary School", "source,C,80": "HOT-Uganda", "osm_id,N,18,0": "5596056078", "osm_type,C,80": "nodes"}, "geometry": {"type": "Point", "coordinates": [31.2736117, 3.6934933]}}, {"type": "Feature", "properties": {"name": "Mitikologa Primary School", "school_type": "Primary School", "school_name": "Mitikologa Primary School", "school_type2": "Primary School", "source,C,80": "HOT-Uganda", "osm_id,N,18,0": "5596056084", "osm_type,C,80": "nodes"}, "geometry": {"type": "Point", "coordinates": [31.268045, 3.722]}}, {"type": "Feature", "properties": {"name": "Moyo Army Primary School", "school_type": "Primary School", "school_name": "Moyo Army Primary School", "school_type2": "Primary School", "osm_id,N,18,0": "6349361481", "osm_type,C,80": "nodes"}, "geometry": {"type": "Point", "coordinates": [31.4538733, 3.6375417]}}, {"type": "Feature", "properties": {"name": "Moyo Boys' Primary School", "school_type": "Primary School", "school_name": "Moyo Boys' Primary School", "school_type2": "Primary School", "source,C,80": "HOT-Uganda", "osm_id,N,18,0": "5596056081", "osm_type,C,80": "nodes"}, "geometry": {"type": "Point", "coordinates": [31.5277489, 3.5937451]}}, {"type": "Feature", "properties": {"name": "Moyo Girls' Primary School", "school_type": "Primary School", "school_name": "Moyo Girls' Primary School", "school_type2": "Primary School", "addr_city,C,80": "Letimekor", "source,C,80": "HOT-Uganda;UBOS", "osm_id,N,18,0": "3961447382", "osm_type,C,80": "nodes"}, "geometry": {"type": "Point", "coordinates": [31.310181, 3.7145902]}}, {"type": "Feature", "properties": {"name": "Moyo Technical Institute", "school_type": "Other or Unknown", "school_name": "Moyo Technical Institute", "school_type5": "Other or Unknown", "addr_city,C,80": "Giwaya", "source,C,80": "HOT-Uganda;UBOS", "osm_id,N,18,0": "3961447383", "osm_type,C,80": "nodes"}, "geometry": {"type": "Point", "coordinates": [31.3025184, 3.7433572]}}, {"type": "Feature", "properties": {"name": "Moyo Town Council Primary School", "school_type": "Primary School", "school_name": "Moyo Town Council Primary School", "school_type2": "Primary School", "addr_city,C,80": "Baranakuto", "source,C,80": "HOT-Uganda;UBOS", "osm_id,N,18,0": "3980676948", "osm_type,C,80": "nodes"}, "geometry": {"type": "Point", "coordinates": [31.3242058, 3.6880372]}}, {"type": "Feature", "properties": {"name": "Mugumbe Primary School", "school_type": "Primary School", "school_name": "Mugumbe Primary School", "school_type2": "Primary School", "operator_type": "Public", "addr_city,C,80": "Aligo", "source,C,80": "HOT-Uganda;www.ubos.org", "osm_id,N,18,0": "4009757187", "osm_type,C,80": "nodes"}, "geometry": {"type": "Point", "coordinates": [31.2392593, 3.6473321]}}, {"type": "Feature", "properties": {"name": "Mundri 2 Primary And Hai Malakal Primary School", "school_type": "Primary School", "school_name": "Mundri 2 Primary And Hai Malakal Primary School", "school_type2": "Primary School", "addr_city,C,80": "Osubira", "source,C,80": "HOT-Uganda;UBOS", "osm_id,N,18,0": "4009758609", "osm_type,C,80": "nodes"}, "geometry": {"type": "Point", "coordinates": [31.2646438, 3.6560794]}}, {"type": "Feature", "properties": {"name": "Mundri Adventist Primary School", "school_type": "Primary School", "school_name": "Mundri Adventist Primary School", "school_type2": "Primary School", "source,C,80": "HOT-Uganda", "osm_id,N,18,0": "5564478711", "osm_type,C,80": "nodes"}, "geometry": {"type": "Point", "coordinates": [31.2909833, 3.6854868]}}, {"type": "Feature", "properties": {"name": "Mundri Advertise Secondary School", "school_type": "Secondary School", "school_name": "Mundri Advertise Secondary School", "school_type4": "Secondary School", "source,C,80": "HOT-Uganda", "osm_id,N,18,0": "5588667298", "osm_type,C,80": "nodes"}, "geometry": {"type": "Point", "coordinates": [31.3022417, 3.6494983]}}, {"type": "Feature", "properties": {"name": "Mundri One Primary School", "school_type": "Primary School", "school_name": "Mundri One Primary School", "school_type2": "Primary School", "source,C,80": "HOT-Uganda", "osm_id,N,18,0": "5556928505", "osm_type,C,80": "nodes"}, "geometry": {"type": "Point", "coordinates": [31.145411, 3.6394495]}}, {"type": "Feature", "properties": {"name": "Mundri One Teachers Training Center", "school_type": "Other or Unknown", "school_name": "Mundri One Teachers Training Center", "school_type5": "Other or Unknown", "addr_city,C,80": "Mijale", "source,C,80": "HOT-Uganda", "osm_id,N,18,0": "3980676945", "osm_type,C,80": "nodes"}, "geometry": {"type": "Point", "coordinates": [31.2913091, 3.685633]}}, {"type": "Feature", "properties": {"name": "Mundri Secondary School, Motherland Secondary And Kotobi Secondary School", "school_type": "Secondary School", "school_name": "Mundri Secondary School, Motherland Secondary And Kotobi Secondary School", "school_type4": "Secondary School", "source,C,80": "HOT-Uganda", "osm_id,N,18,0": "5564478710", "osm_type,C,80": "nodes"}, "geometry": {"type": "Point", "coordinates": [31.2924267, 3.6933317]}}, {"type": "Feature", "properties": {"name": "Mundri Teachers Union Secondary School", "school_type": "Secondary School", "school_name": "Mundri Teachers Union Secondary School", "school_type4": "Secondary School", "operator_type": "Public", "osm_id,N,18,0": "12158075311", "osm_type,C,80": "nodes"}, "geometry": {"type": "Point", "coordinates": [30.285953, 5.3432784]}}, {"type": "Feature", "properties": {"name": "Mundri Youth Center", "school_type": "Other or Unknown", "school_name": "Mundri Youth Center", "school_type5": "Other or Unknown", "operator_type": "Public", "osm_id,N,18,0": "12158075312", "osm_type,C,80": "nodes"}, "geometry": {"type": "Point", "coordinates": [30.3076474, 5.3493353]}}, {"type": "Feature", "properties": {"name": "Nanga Nursery School", "school_type": "Nursery School", "school_name": "Nanga Nursery School", "school_type1": "Nursery School", "operator_type": "Public", "osm_id,N,18,0": "12158075313", "osm_type,C,80": "nodes"}, "geometry": {"type": "Point", "coordinates": [30.379117, 5.4050778]}}, {"type": "Feature", "properties": {"name": "Nasir Primary And Secondary School", "school_type": "Primary School, Secondary School", "school_name": "Nasir Primary And Secondary School", "school_type2": "Primary School", "school_type4": "Secondary School", "operator_type": "Public", "osm_id,N,18,0": "12158075314", "osm_type,C,80": "nodes"}, "geometry": {"type": "Point", "coordinates": [30.4364781, 5.5699939]}}, {"type": "Feature", "properties": {"name": "New Generation Academy", "school_type": "Other or Unknown", "school_name": "New Generation Academy", "school_type5": "Other or Unknown", "operator_type": "Public", "osm_id,N,18,0": "12158075315", "osm_type,C,80": "nodes"}, "geometry": {"type": "Point", "coordinates": [30.3117296, 5.3335204]}}, {"type": "Feature", "properties": {"name": "Noor Primary School", "school_type": "Primary School", "school_name": "Noor Primary School", "school_type2": "Primary School", "operator_type": "Public", "osm_id,N,18,0": "12158075316", "osm_type,C,80": "nodes"}, "geometry": {"type": "Point", "coordinates": [30.327356, 5.3466793]}}, {"type": "Feature", "properties": {"name": "Nuru Nursery School", "school_type": "Nursery School", "school_name": "Nuru Nursery School", "school_type1": "Nursery School", "operator_type": "Community", "osm_id,N,18,0": "12158075317", "osm_type,C,80": "nodes"}, "geometry": {"type": "Point", "coordinates": [30.3247392, 5.3445409]}}, {"type": "Feature", "properties": {"name": "Nyambiri Primary School", "school_type": "Primary School", "school_name": "Nyambiri Primary School", "school_type2": "Primary School", "operator_type": "Public", "osm_id,N,18,0": "12158075318", "osm_type,C,80": "nodes"}, "geometry": {"type": "Point", "coordinates": [30.4183168, 5.5995064]}}, {"type": "Feature", "properties": {"name": "Nyojo Primary School", "school_type": "Primary School", "school_name": "Nyojo Primary School", "school_type2": "Primary School", "operator_type": "Public", "osm_id,N,18,0": "12158075319", "osm_type,C,80": "nodes"}, "geometry": {"type": "Point", "coordinates": [30.1600992, 5.3700777]}}, {"type": "Feature", "properties": {"name": "Obero Primary School", "school_type": "Primary School", "school_name": "Obero Primary School", "school_type2": "Primary School", "operator_type": "Public", "osm_id,N,18,0": "12158075320", "osm_type,C,80": "nodes"}, "geometry": {"type": "Point", "coordinates": [30.3270902, 5.0327437]}}, {"type": "Feature", "properties": {"name": "Odokomba Primary School", "school_type": "Primary School", "school_name": "Odokomba Primary School", "school_type2": "Primary School", "operator_type": "Religious", "osm_id,N,18,0": "12158075321", "osm_type,C,80": "nodes"}, "geometry": {"type": "Point", "coordinates": [30.3197747, 5.3524505]}}, {"type": "Feature", "properties": {"name": "Ogolo Primary School", "school_type": "Primary School", "school_name": "Ogolo Primary School", "school_type2": "Primary School", "operator_type": "Religious", "osm_id,N,18,0": "12158075322", "osm_type,C,80": "nodes"}, "geometry": {"type": "Point", "coordinates": [30.2962452, 5.341644]}}, {"type": "Feature", "properties": {"name": "Okari Primary School", "school_type": "Primary School", "school_name": "Okari Primary School", "school_type2": "Primary School", "operator_type": "Public", "osm_id,N,18,0": "12158075323", "osm_type,C,80": "nodes"}, "geometry": {"type": "Point", "coordinates": [30.210673, 5.25738]}}, {"type": "Feature", "properties": {"name": "Omdurman P School", "school_type": "Primary School"}, "geometry": {"type": "Point", "coordinates": [30.1088705, 5.1615679]}}, {"type": "Feature", "properties": {"name": "One Way Nursery And Primary School", "school_type": "Nursery School, Primary School", "school_name": "One Way Nursery And Primary School", "school_type1": "Nursery School", "school_type2": "Primary School", "operator_type": "Public", "osm_id,N,18,0": "12158075325", "osm_type,C,80": "nodes"}, "geometry": {"type": "Point", "coordinates": [30.3244384, 5.3522595]}}, {"type": "Feature", "properties": {"name": "Orphanage Primary", "school_type": "Primary School", "school_name": "Orphanage Primary", "school_type2": "Primary School", "operator_type": "Community", "osm_id,N,18,0": "12158075326", "osm_type,C,80": "nodes"}, "geometry": {"type": "Point", "coordinates": [30.3198749, 5.3381108]}}, {"type": "Feature", "properties": {"name": "Osubira Primary School", "school_type": "Primary School", "school_name": "Osubira Primary School", "school_type2": "Primary School", "operator_type": "Public", "osm_id,N,18,0": "12158075327", "osm_type,C,80": "nodes"}, "geometry": {"type": "Point", "coordinates": [30.2996667, 4.829435]}}, {"type": "Feature", "properties": {"name": "Paanjala Nursery School", "school_type": "Nursery School", "school_name": "Paanjala Nursery School", "school_type1": "Nursery School", "operator_type": "Private", "osm_id,N,18,0": "12158075328", "osm_type,C,80": "nodes"}, "geometry": {"type": "Point", "coordinates": [30.3311287, 5.344783]}}, {"type": "Feature", "properties": {"name": "Palacam Primary School", "school_type": "Primary School", "school_name": "Palacam Primary School", "school_type2": "Primary School", "operator_type": "Public", "osm_id,N,18,0": "12158075329", "osm_type,C,80": "nodes"}, "geometry": {"type": "Point", "coordinates": [30.3934836, 5.2290373]}}, {"type": "Feature", "properties": {"name": "Palmar Primary School", "school_type": "Primary School", "school_name": "Palmar Primary School", "school_type2": "Primary School", "operator_type": "Private", "osm_id,N,18,0": "12158075330", "osm_type,C,80": "nodes"}, "geometry": {"type": "Point", "coordinates": [30.3073052, 5.3292863]}}, {"type": "Feature", "properties": {"name": "Panjara Primary School", "school_type": "Primary School", "school_name": "Panjara Primary School", "school_type2": "Primary School", "operator_type": "Public", "osm_id,N,18,0": "12158075331", "osm_type,C,80": "nodes"}, "geometry": {"type": "Point", "coordinates": [30.2685737, 5.3323553]}}, {"type": "Feature", "properties": {"name": "Parish Primary School", "school_type": "Primary School", "school_name": "Parish Primary School", "school_type2": "Primary School", "operator_type": "Private", "osm_id,N,18,0": "12158075332", "osm_type,C,80": "nodes"}, "geometry": {"type": "Point", "coordinates": [30.3051527, 5.3508436]}}, {"type": "Feature", "properties": {"name": "Partial P School", "school_type": "Primary School", "school_name": "Partial P School", "operator_type": "Public", "osm_id,N,18,0": "12158075333", "osm_type,C,80": "nodes"}, "geometry": {"type": "Point", "coordinates": [30.4174594, 5.2391294]}}, {"type": "Feature", "properties": {"name": "Pentagon College", "school_type": "College", "school_name": "Pentagon College", "school_type3": "College", "operator_type": "Private", "osm_id,N,18,0": "12158075334", "osm_type,C,80": "nodes"}, "geometry": {"type": "Point", "coordinates": [30.2908612, 5.345824]}}, {"type": "Feature", "properties": {"name": "Peremasu School", "school_type": "Other or Unknown", "school_name": "Peremasu School", "operator_type": "Religious", "osm_id,N,18,0": "12158075335", "osm_type,C,80": "nodes"}, "geometry": {"type": "Point", "coordinates": [30.2990728, 5.3299753]}}, {"type": "Feature", "properties": {"name": "Pibor Primary School", "school_type": "Primary School", "school_name": "Pibor Primary School", "school_type2": "Primary School", "operator_type": "Public", "osm_id,N,18,0": "12158075336", "osm_type,C,80": "nodes"}, "geometry": {"type": "Point", "coordinates": [30.1999944, 5.251839]}}, {"type": "Feature", "properties": {"name": "Potika Nursery School", "school_type": "Nursery School", "school_name": "Potika Nursery School", "school_type1": "Nursery School", "operator_type": "Public", "osm_id,N,18,0": "12158075337", "osm_type,C,80": "nodes"}, "geometry": {"type": "Point", "coordinates": [30.3391975, 5.3528109]}}, {"type": "Feature", "properties": {"name": "Primary School Leer", "school_type": "Primary School", "school_name": "Primary School Leer", "school_type2": "Primary School", "operator_type": "Religious", "osm_id,N,18,0": "12158075338", "osm_type,C,80": "nodes"}, "geometry": {"type": "Point", "coordinates": [30.3192492, 5.3529326]}}, {"type": "Feature", "properties": {"name": "Riangmal Primary School", "school_type": "Primary School", "school_name": "Riangmal Primary School", "school_type2": "Primary School", "operator_type": "Public", "osm_id,N,18,0": "12158075340", "osm_type,C,80": "nodes"}, "geometry": {"type": "Point", "coordinates": [30.3169658, 5.3150083]}}, {"type": "Feature", "properties": {"name": "Riangmal Primary School", "school_type": "Primary School", "school_name": "Riangmal Primary School", "school_type2": "Primary School", "operator_type": "Public", "osm_id,N,18,0": "12158075340", "osm_type,C,80": "nodes"}, "geometry": {"type": "Point", "coordinates": [30.1656684, 5.5765989]}}, {"type": "Feature", "properties": {"name": "Roa Primary School", "school_type": "Primary School", "school_name": "Roa Primary School", "school_type2": "Primary School", "operator_type": "Public", "osm_id,N,18,0": "12158075341", "osm_type,C,80": "nodes"}, "geometry": {"type": "Point", "coordinates": [30.3117666, 5.3728442]}}, {"type": "Feature", "properties": {"name": "Romogi Seed Secondary School", "school_type": "Secondary School", "school_name": "Romogi Seed Secondary School", "school_type4": "Secondary School", "operator_type": "Religious", "osm_id,N,18,0": "12158075342", "osm_type,C,80": "nodes"}, "geometry": {"type": "Point", "coordinates": [30.3201249, 5.3546964]}}, {"type": "Feature", "properties": {"name": "Rubeke P School", "school_type": "Primary School"}, "geometry": {"type": "Point", "coordinates": [30.3347734, 4.9483583]}}, {"type": "Feature", "properties": {"name": "Rubeke P School", "school_type": "Primary School"}, "geometry": {"type": "Point", "coordinates": [30.3417105, 5.0605989]}}, {"type": "Feature", "properties": {"name": "Rubeke Primary School Otogo Pam", "school_type": "Primary School", "school_name": "Rubeke Primary School Otogo Pam", "school_type2": "Primary School", "operator_type": "Religious", "osm_id,N,18,0": "12158075345", "osm_type,C,80": "nodes"}, "geometry": {"type": "Point", "coordinates": [30.3185655, 5.3489285]}}, {"type": "Feature", "properties": {"name": "Rubeke S S", "school_type": "Other or Unknown"}, "geometry": {"type": "Point", "coordinates": [30.3443289, 5.3580933]}}, {"type": "Feature", "properties": {"name": "Rumaker P School", "school_type": "Primary School"}, "geometry": {"type": "Point", "coordinates": [30.3291096, 5.3488502]}}, {"type": "Feature", "properties": {"name": "Saint Andrew College", "school_type": "College", "school_name": "Saint Andrew College", "school_type3": "College", "operator_type": "Public", "osm_id,N,18,0": "12158075348", "osm_type,C,80": "nodes"}, "geometry": {"type": "Point", "coordinates": [30.0359677, 5.1298917]}}, {"type": "Feature", "properties": {"name": "Saint Kizito Primary School", "school_type": "Primary School", "school_name": "Saint Kizito Primary School", "school_type2": "Primary School", "operator_type": "Public", "osm_id,N,18,0": "12158075349", "osm_type,C,80": "nodes"}, "geometry": {"type": "Point", "coordinates": [30.2017337, 5.2509091]}}, {"type": "Feature", "properties": {"name": "Sasanya Nursery School", "school_type": "Nursery School", "school_name": "Sasanya Nursery School", "school_type1": "Nursery School", "operator_type": "Community", "osm_id,N,18,0": "12158075350", "osm_type,C,80": "nodes"}, "geometry": {"type": "Point", "coordinates": [30.3275581, 5.3512263]}}, {"type": "Feature", "properties": {"name": "Seventh Advertise Nursery School", "school_type": "Nursery School", "school_name": "Seventh Advertise Nursery School", "school_type1": "Nursery School", "operator_type": "Private", "osm_id,N,18,0": "12158075351", "osm_type,C,80": "nodes"}, "geometry": {"type": "Point", "coordinates": [30.3168607, 5.3237212]}}, {"type": "Feature", "properties": {"name": "Seventh Days Advertise Primary School", "school_type": "Primary School", "school_name": "Seventh Days Advertise Primary School", "school_type2": "Primary School", "operator_type": "Public", "osm_id,N,18,0": "12158075352", "osm_type,C,80": "nodes"}, "geometry": {"type": "Point", "coordinates": [30.3324846, 5.5332453]}}, {"type": "Feature", "properties": {"name": "St Augustine Nursery School Mijale", "school_type": "Nursery School", "school_name": "St Augustine Nursery School Mijale", "school_type1": "Nursery School", "operator_type": "Private", "osm_id,N,18,0": "12158075353", "osm_type,C,80": "nodes"}, "geometry": {"type": "Point", "coordinates": [30.3038651, 5.3538924]}}, {"type": "Feature", "properties": {"name": "St Joseph Lutaya Secondary School", "school_type": "Secondary School", "school_name": "St Joseph Lutaya Secondary School", "school_type4": "Secondary School", "operator_type": "Private", "osm_id,N,18,0": "12158075354", "osm_type,C,80": "nodes"}, "geometry": {"type": "Point", "coordinates": [30.3165965, 5.3581306]}}, {"type": "Feature", "properties": {"name": "St Kizito Primary School", "school_type": "Primary School", "school_name": "St Kizito Primary School", "school_type2": "Primary School", "operator_type": "Public", "osm_id,N,18,0": "12158075355", "osm_type,C,80": "nodes"}, "geometry": {"type": "Point", "coordinates": [30.2883477, 5.3426111]}}, {"type": "Feature", "properties": {"name": "St Mary'S College", "school_type": "College", "school_name": "St Mary'S College", "school_type3": "College", "operator_type": "Private", "osm_id,N,18,0": "12158075356", "osm_type,C,80": "nodes"}, "geometry": {"type": "Point", "coordinates": [30.3275668, 5.3436471]}}, {"type": "Feature", "properties": {"name": "St Paul Secondary School", "school_type": "Secondary School", "school_name": "St Paul Secondary School", "school_type4": "Secondary School", "operator_type": "Private", "osm_id,N,18,0": "12158075357", "osm_type,C,80": "nodes"}, "geometry": {"type": "Point", "coordinates": [30.3261166, 5.350353]}}, {"type": "Feature", "properties": {"name": "St. John Bugo Nursery And Primary School", "school_type": "Nursery School, Primary School", "school_name": "St. John Bugo Nursery And Primary School", "school_type1": "Nursery School", "school_type2": "Primary School", "operator_type": "Community", "osm_id,N,18,0": "12158075358", "osm_type,C,80": "nodes"}, "geometry": {"type": "Point", "coordinates": [30.3173988, 5.3596266]}}, {"type": "Feature", "properties": {"name": "St. Joseph Basic School", "school_type": "Other or Unknown", "school_name": "St. Joseph Basic School", "operator_type": "Public", "osm_id,N,18,0": "12158075359", "osm_type,C,80": "nodes"}, "geometry": {"type": "Point", "coordinates": [30.3460416, 5.3510081]}}, {"type": "Feature", "properties": {"name": "St.Mark Nursery School Kololo", "school_type": "Nursery School", "school_name": "St.Mark Nursery School Kololo", "school_type1": "Nursery School", "operator_type": "Public", "osm_id,N,18,0": "12158075360", "osm_type,C,80": "nodes"}, "geometry": {"type": "Point", "coordinates": [30.3221393, 5.3057542]}}, {"type": "Feature", "properties": {"name": "Stordy Nursery & Primary School", "school_type": "Nursery School, Primary School", "school_name": "Stordy Nursery & Primary School", "school_type1": "Nursery School", "school_type2": "Primary School", "operator_type": "Public", "osm_id,N,18,0": "12158075361", "osm_type,C,80": "nodes"}, "geometry": {"type": "Point", "coordinates": [30.0537638, 5.1378576]}}, {"type": "Feature", "properties": {"name": "Swinga Primary School", "school_type": "Primary School", "school_name": "Swinga Primary School", "school_type2": "Primary School", "operator_type": "Public", "osm_id,N,18,0": "12158075362", "osm_type,C,80": "nodes"}, "geometry": {"type": "Point", "coordinates": [30.087535, 5.1516957]}}, {"type": "Feature", "properties": {"name": "Take Care Nursery School", "school_type": "Nursery School", "school_name": "Take Care Nursery School", "school_type1": "Nursery School", "operator_type": "Public", "osm_id,N,18,0": "12158075363", "osm_type,C,80": "nodes"}, "geometry": {"type": "Point", "coordinates": [30.3271781, 5.3534321]}}, {"type": "Feature", "properties": {"name": "Tendele Community School", "school_type": "Other or Unknown", "school_name": "Tendele Community School", "school_type5": "Other or Unknown", "operator_type": "Private", "osm_id,N,18,0": "12158075364", "osm_type,C,80": "nodes"}, "geometry": {"type": "Point", "coordinates": [30.3206971, 5.3377511]}}, {"type": "Feature", "properties": {"name": "Tororo Primary School", "school_type": "Primary School", "school_name": "Tororo Primary School", "school_type2": "Primary School", "operator_type": "Public", "osm_id,N,18,0": "12158075365", "osm_type,C,80": "nodes"}, "geometry": {"type": "Point", "coordinates": [30.3404726, 5.5072983]}}, {"type": "Feature", "properties": {"name": "True Light Nursery And Primary School", "school_type": "Nursery School, Primary School", "school_name": "True Light Nursery And Primary School", "school_type1": "Nursery School", "school_type2": "Primary School", "operator_type": "Public", "osm_id,N,18,0": "12158075366", "osm_type,C,80": "nodes"}, "geometry": {"type": "Point", "coordinates": [30.3446691, 5.6615282]}}, {"type": "Feature", "properties": {"name": "Ubbi Primary School", "school_type": "Primary School", "school_name": "Ubbi Primary School", "school_type2": "Primary School", "operator_type": "Religious", "osm_id,N,18,0": "12158075367", "osm_type,C,80": "nodes"}, "geometry": {"type": "Point", "coordinates": [30.3184878, 5.3488119]}}, {"type": "Feature", "properties": {"name": "University Of Juba. College Of Comunity Studies And Rural Development", "school_type": "College", "school_name": "University Of Juba. College Of Comunity Studies And Rural Development", "school_type3": "College", "osm_id,N,18,0": "8974878509", "osm_type,C,80": "nodes"}, "geometry": {"type": "Point", "coordinates": [30.6478398, 4.0782873]}}, {"type": "Feature", "properties": {"name": "Upper Primary School", "school_type": "Primary School", "school_name": "Upper Primary School", "school_type2": "Primary School", "operator_type": "Religious", "osm_id,N,18,0": "8963517703", "osm_type,C,80": "nodes"}, "geometry": {"type": "Point", "coordinates": [30.686751, 4.0983819]}}, {"type": "Feature", "properties": {"name": "Uyon Primary Sch", "school_type": "Primary School", "school_name": "Uyon Primary Sch", "school_type2": "Primary School", "osm_id,N,18,0": "12161426940", "osm_type,C,80": "nodes"}, "geometry": {"type": "Point", "coordinates": [30.1500785, 8.3009068]}}, {"type": "Feature", "properties": {"name": "Wardoper Family Care Nursery School", "school_type": "Nursery School", "school_name": "Wardoper Family Care Nursery School", "school_type1": "Nursery School", "osm_id,N,18,0": "12161426942", "osm_type,C,80": "nodes"}, "geometry": {"type": "Point", "coordinates": [30.1329794, 8.3092751]}}, {"type": "Feature", "properties": {"name": "Yei Day Secondary School", "school_type": "Secondary School", "school_name": "Yei Day Secondary School", "school_type4": "Secondary School", "osm_id,N,18,0": "9126530417", "osm_type,C,80": "nodes"}, "geometry": {"type": "Point", "coordinates": [32.84513, 4.1705913]}}, {"type": "Feature", "properties": {"name": "Yei Teacher Training Collage", "school_type": "Other or Unknown", "school_name": "Yei Teacher Training Collage", "school_type5": "Other or Unknown", "operator_type": "Public", "addr_city,C,80": "Kakanya", "source,C,80": "www.ubos.org", "osm_id,N,18,0": "3981350259", "osm_type,C,80": "nodes"}, "geometry": {"type": "Point", "coordinates": [30.9034225, 3.5223212]}}, {"type": "Feature", "properties": {"name": null, "school_type": "Other or Unknown"}, "geometry": {"type": "Point", "coordinates": [30.9296297, 3.5861702]}}, {"type": "Feature", "properties": {"name": null, "school_type": "Other or Unknown"}, "geometry": {"type": "Point", "coordinates": [27.4843731, 5.6223335]}}, {"type": "Feature", "properties": {"name": null, "school_type": "Other or Unknown"}, "geometry": {"type": "Point", "coordinates": [31.5598281, 4.8384299]}}, {"type": "Feature", "properties": {"name": null, "school_type": "Other or Unknown"}, "geometry": {"type": "Point", "coordinates": [32.303072, 4.1219177]}}, {"type": "Feature", "properties": {"name": null, "school_type": "Other or Unknown"}, "geometry": {"type": "Point", "coordinates": [31.5827294, 4.8468946]}}, {"type": "Feature", "properties": {"name": null, "school_type": "Other or Unknown"}, "geometry": {"type": "Point", "coordinates": [31.6099732, 4.85065]}}]}